{"type": "FeatureCollection", "id": "http://w3id.org/geo-lod/Point_collection", "name": "Point Instances Collection", "features": [{"type": "Feature", "id": "http://w3id.org/geo-lod/ci/cisite_4_geom", "name": " (ci:cisite_4_geom)", "dateprops": [], "properties": {"http://w3id.org/geo-lod/hasCertaintyDescription": "findspot mentioned in a scientific paper", "http://rdfs.org/ns/void#inDataset.value": "314"}, "geometry": {"type": "Point", "coordinates": [14.5259, 40.6993], "crs": "4326"}}, {"type": "Feature", "id": "http://w3id.org/geo-lod/ci/cisite_52_geom", "name": " (ci:cisite_52_geom)", "dateprops": [], "properties": {"http://w3id.org/geo-lod/hasCertaintyDescription": "Fitzsimmons et al. (2014), p.76: \u201cIn this paper we investigate [...] the site of Urluia Quarry on the Dobrogea loess plateau [...], some 15 km south of the Danube River. The site immediately overlies the Quaternary-uplifted Cretaceous-Tertiary-age limestone basement rocks (Munteanu et al., 2008), which were the target of earlier quarrying activities.\u201d; P\u00f6tter et al. (2021), p.5: \u201cThe Urluia (URL) LPS is located in an abandoned limestone quarry on the limestone plateau of the Dobrogea (Fitzsimmons et al., 2013; Fitzsimmons and Hambach, 2014; Obreht et al., 2017).\u201d", "http://rdfs.org/ns/void#inDataset.value": "314"}, "geometry": {"type": "Point", "coordinates": [27.9021, 44.0947], "crs": "4326"}}, {"type": "Feature", "id": "http://w3id.org/geo-lod/ci/cisite_106_geom", "name": " (ci:cisite_106_geom)", "dateprops": [], "properties": {"http://w3id.org/geo-lod/hasCertaintyDescription": "findspot mentioned in a scientific paper", "http://rdfs.org/ns/void#inDataset.value": "314"}, "geometry": {"type": "Point", "coordinates": [21.0, 40.9167], "crs": "4326"}}, {"type": "Feature", "id": "http://w3id.org/geo-lod/ci/cisite_53_geom", "name": " (ci:cisite_53_geom)", "dateprops": [], "properties": {"http://w3id.org/geo-lod/hasCertaintyDescription": "findspot mentioned in a scientific paper", "http://rdfs.org/ns/void#inDataset.value": "314"}, "geometry": {"type": "Point", "coordinates": [28.2329, 43.9996], "crs": "4326"}}, {"type": "Feature", "id": "http://w3id.org/geo-lod/ci/cisite_65_geom", "name": " (ci:cisite_65_geom)", "dateprops": [], "properties": {"http://w3id.org/geo-lod/hasCertaintyDescription": "findspot mentioned in a scientific paper", "http://rdfs.org/ns/void#inDataset.value": "314"}, "geometry": {"type": "Point", "coordinates": [22.0516, 32.9002], "crs": "4326"}}, {"type": "Feature", "id": "http://w3id.org/geo-lod/ci/cisite_38_geom", "name": " (ci:cisite_38_geom)", "dateprops": [], "properties": {"http://w3id.org/geo-lod/hasCertaintyDescription": "findspot mentioned in a scientific paper", "http://rdfs.org/ns/void#inDataset.value": "314"}, "geometry": {"type": "Point", "coordinates": [14.4273, 40.6622], "crs": "4326"}}, {"type": "Feature", "id": "http://w3id.org/geo-lod/ci/cisite_51_geom", "name": " (ci:cisite_51_geom)", "dateprops": [], "properties": {"http://w3id.org/geo-lod/hasCertaintyDescription": "findspot mentioned in a scientific paper and found on OpenStreetMap", "http://rdfs.org/ns/void#inDataset.value": "314"}, "geometry": {"type": "Point", "coordinates": [18.4815, 42.779], "crs": "4326"}}, {"type": "Feature", "id": "http://w3id.org/geo-lod/ci/cisite_20_geom", "name": " (ci:cisite_20_geom)", "dateprops": [], "properties": {"http://w3id.org/geo-lod/hasCertaintyDescription": "findspot mentioned in a scientific paper", "http://rdfs.org/ns/void#inDataset.value": "314"}, "geometry": {"type": "Point", "coordinates": [14.7546, 40.7249], "crs": "4326"}}, {"type": "Feature", "id": "http://w3id.org/geo-lod/ci/cisite_43_geom", "name": " (ci:cisite_43_geom)", "dateprops": [], "properties": {"http://w3id.org/geo-lod/hasCertaintyDescription": "findspot mentioned in a scientific paper", "http://rdfs.org/ns/void#inDataset.value": "314"}, "geometry": {"type": "Point", "coordinates": [23.3848, 43.0892], "crs": "4326"}}, {"type": "Feature", "id": "http://w3id.org/geo-lod/ci/cisite_27_geom", "name": " (ci:cisite_27_geom)", "dateprops": [], "properties": {"http://w3id.org/geo-lod/hasCertaintyDescription": "findspot mentioned in a scientific paper", "http://rdfs.org/ns/void#inDataset.value": "314"}, "geometry": {"type": "Point", "coordinates": [14.3733, 40.607], "crs": "4326"}}, {"type": "Feature", "id": "http://w3id.org/geo-lod/ci/cisite_2_geom", "name": " (ci:cisite_2_geom)", "dateprops": [], "properties": {"http://w3id.org/geo-lod/hasCertaintyDescription": "findspot mentioned in a scientific paper", "http://rdfs.org/ns/void#inDataset.value": "314"}, "geometry": {"type": "Point", "coordinates": [14.6983, 40.9285], "crs": "4326"}}, {"type": "Feature", "id": "http://w3id.org/geo-lod/ci/cisite_56_geom", "name": " (ci:cisite_56_geom)", "dateprops": [], "properties": {"http://w3id.org/geo-lod/hasCertaintyDescription": "findspot mentioned in a scientific paper", "http://rdfs.org/ns/void#inDataset.value": "314"}, "geometry": {"type": "Point", "coordinates": [27.3271, 44.1891], "crs": "4326"}}, {"type": "Feature", "id": "http://w3id.org/geo-lod/ci/cisite_61_geom", "name": " (ci:cisite_61_geom)", "dateprops": [], "properties": {"http://w3id.org/geo-lod/hasCertaintyDescription": "findspot mentioned in a scientific paper", "http://rdfs.org/ns/void#inDataset.value": "314"}, "geometry": {"type": "Point", "coordinates": [21.3912, 44.7397], "crs": "4326"}}, {"type": "Feature", "id": "http://w3id.org/geo-lod/ci/cisite_25_geom", "name": " (ci:cisite_25_geom)", "dateprops": [], "properties": {"http://w3id.org/geo-lod/hasCertaintyDescription": "findspot mentioned in a scientific paper", "http://rdfs.org/ns/void#inDataset.value": "314"}, "geometry": {"type": "Point", "coordinates": [14.6459, 40.6783], "crs": "4326"}}, {"type": "Feature", "id": "http://w3id.org/geo-lod/ci/cisite_102_geom", "name": " (ci:cisite_102_geom)", "dateprops": [], "properties": {"http://w3id.org/geo-lod/hasCertaintyDescription": "findspot mentioned in a scientific paper", "http://rdfs.org/ns/void#inDataset.value": "314"}, "geometry": {"type": "Point", "coordinates": [21.4058, 43.6728], "crs": "4326"}}, {"type": "Feature", "id": "http://w3id.org/geo-lod/ci/cisite_17_geom", "name": " (ci:cisite_17_geom)", "dateprops": [], "properties": {"http://w3id.org/geo-lod/hasCertaintyDescription": "findspot mentioned in a scientific paper", "http://rdfs.org/ns/void#inDataset.value": "314"}, "geometry": {"type": "Point", "coordinates": [14.208, 40.8537], "crs": "4326"}}, {"type": "Feature", "id": "http://w3id.org/geo-lod/ci/cisite_10_geom", "name": " (ci:cisite_10_geom)", "dateprops": [], "properties": {"http://w3id.org/geo-lod/hasCertaintyDescription": "findspot mentioned in a scientific paper", "http://rdfs.org/ns/void#inDataset.value": "314"}, "geometry": {"type": "Point", "coordinates": [14.3998, 40.6385], "crs": "4326"}}, {"type": "Feature", "id": "http://w3id.org/geo-lod/ci/cisite_31_geom", "name": " (ci:cisite_31_geom)", "dateprops": [], "properties": {"http://w3id.org/geo-lod/hasCertaintyDescription": "findspot mentioned in a scientific paper", "http://rdfs.org/ns/void#inDataset.value": "314"}, "geometry": {"type": "Point", "coordinates": [14.156, 40.9346], "crs": "4326"}}, {"type": "Feature", "id": "http://w3id.org/geo-lod/ci/cisite_57_geom", "name": " (ci:cisite_57_geom)", "dateprops": [], "properties": {"http://w3id.org/geo-lod/hasCertaintyDescription": "findspot mentioned in a scientific paper", "http://rdfs.org/ns/void#inDataset.value": "314"}, "geometry": {"type": "Point", "coordinates": [27.2478, 45.3037], "crs": "4326"}}, {"type": "Feature", "id": "http://w3id.org/geo-lod/ci/cisite_201_geom", "name": " (ci:cisite_201_geom)", "dateprops": [], "properties": {"http://w3id.org/geo-lod/hasCertaintyDescription": "findspot mentioned in a scientific paper", "http://rdfs.org/ns/void#inDataset.value": "314"}, "geometry": {"type": "Point", "coordinates": [6.5951, 50.2825], "crs": "4326"}}, {"type": "Feature", "id": "http://w3id.org/geo-lod/ci/cisite_58_geom", "name": " (ci:cisite_58_geom)", "dateprops": [], "properties": {"http://w3id.org/geo-lod/hasCertaintyDescription": "findspot mentioned in a scientific paper", "http://rdfs.org/ns/void#inDataset.value": "314"}, "geometry": {"type": "Point", "coordinates": [45.0, 55.0], "crs": "4326"}}, {"type": "Feature", "id": "http://w3id.org/geo-lod/ci/cisite_36_geom", "name": " (ci:cisite_36_geom)", "dateprops": [], "properties": {"http://w3id.org/geo-lod/hasCertaintyDescription": "findspot mentioned in a scientific paper", "http://rdfs.org/ns/void#inDataset.value": "314"}, "geometry": {"type": "Point", "coordinates": [14.7069, 41.0577], "crs": "4326"}}, {"type": "Feature", "id": "http://w3id.org/geo-lod/ci/cisite_45_geom", "name": " (ci:cisite_45_geom)", "dateprops": [], "properties": {"http://w3id.org/geo-lod/hasCertaintyDescription": "findspot mentioned in a scientific paper and found on OpenStreetMap", "http://rdfs.org/ns/void#inDataset.value": "314"}, "geometry": {"type": "Point", "coordinates": [23.1311, 37.4226], "crs": "4326"}}, {"type": "Feature", "id": "http://w3id.org/geo-lod/ci/cisite_63_geom", "name": " (ci:cisite_63_geom)", "dateprops": [], "properties": {"http://w3id.org/geo-lod/hasCertaintyDescription": "findspot mentioned in a scientific paper", "http://rdfs.org/ns/void#inDataset.value": "314"}, "geometry": {"type": "Point", "coordinates": [20.3026, 45.2034], "crs": "4326"}}, {"type": "Feature", "id": "http://w3id.org/geo-lod/ci/cisite_33_geom", "name": " (ci:cisite_33_geom)", "dateprops": [], "properties": {"http://w3id.org/geo-lod/hasCertaintyDescription": "findspot mentioned in a scientific paper", "http://rdfs.org/ns/void#inDataset.value": "314"}, "geometry": {"type": "Point", "coordinates": [14.7567, 41.0075], "crs": "4326"}}, {"type": "Feature", "id": "http://w3id.org/geo-lod/ci/cisite_12_geom", "name": " (ci:cisite_12_geom)", "dateprops": [], "properties": {"http://w3id.org/geo-lod/hasCertaintyDescription": "findspot mentioned in a scientific paper", "http://rdfs.org/ns/void#inDataset.value": "314"}, "geometry": {"type": "Point", "coordinates": [14.2479, 40.8312], "crs": "4326"}}, {"type": "Feature", "id": "http://w3id.org/geo-lod/ci/cisite_49_geom", "name": " (ci:cisite_49_geom)", "dateprops": [], "properties": {"http://w3id.org/geo-lod/hasCertaintyDescription": "findspot mentioned in a scientific paper", "http://rdfs.org/ns/void#inDataset.value": "314"}, "geometry": {"type": "Point", "coordinates": [20.7409, 41.0467], "crs": "4326"}}, {"type": "Feature", "id": "http://w3id.org/geo-lod/ci/cisite_46_geom", "name": " (ci:cisite_46_geom)", "dateprops": [], "properties": {"http://w3id.org/geo-lod/hasCertaintyDescription": "findspot mentioned in a scientific paper", "http://rdfs.org/ns/void#inDataset.value": "314"}, "geometry": {"type": "Point", "coordinates": [21.4672, 40.5361], "crs": "4326"}}, {"type": "Feature", "id": "http://w3id.org/geo-lod/ci/cisite_55_geom", "name": " (ci:cisite_55_geom)", "dateprops": [], "properties": {"http://w3id.org/geo-lod/hasCertaintyDescription": "findspot mentioned in a scientific paper", "http://rdfs.org/ns/void#inDataset.value": "314"}, "geometry": {"type": "Point", "coordinates": [25.292, 43.655], "crs": "4326"}}, {"type": "Feature", "id": "http://w3id.org/geo-lod/ci/cisite_101_geom", "name": " (ci:cisite_101_geom)", "dateprops": [], "properties": {"http://w3id.org/geo-lod/hasCertaintyDescription": "findspot mentioned in a scientific paper", "http://rdfs.org/ns/void#inDataset.value": "314"}, "geometry": {"type": "Point", "coordinates": [20.5809, 45.2417], "crs": "4326"}}, {"type": "Feature", "id": "http://w3id.org/geo-lod/ci/cisite_13_geom", "name": " (ci:cisite_13_geom)", "dateprops": [], "properties": {"http://w3id.org/geo-lod/hasCertaintyDescription": "findspot mentioned in a scientific paper", "http://rdfs.org/ns/void#inDataset.value": "314"}, "geometry": {"type": "Point", "coordinates": [15.6057, 40.9315], "crs": "4326"}}, {"type": "Feature", "id": "http://w3id.org/geo-lod/ci/cisite_23_geom", "name": " (ci:cisite_23_geom)", "dateprops": [], "properties": {"http://w3id.org/geo-lod/hasCertaintyDescription": "findspot mentioned in a scientific paper", "http://rdfs.org/ns/void#inDataset.value": "314"}, "geometry": {"type": "Point", "coordinates": [14.2594, 40.8731], "crs": "4326"}}, {"type": "Feature", "id": "http://w3id.org/geo-lod/ci/cisite_62_geom", "name": " (ci:cisite_62_geom)", "dateprops": [], "properties": {"http://w3id.org/geo-lod/hasCertaintyDescription": "findspot mentioned in a scientific paper", "http://rdfs.org/ns/void#inDataset.value": "314"}, "geometry": {"type": "Point", "coordinates": [22.3094, 44.6568], "crs": "4326"}}, {"type": "Feature", "id": "http://w3id.org/geo-lod/ci/cisite_8_geom", "name": " (ci:cisite_8_geom)", "dateprops": [], "properties": {"http://w3id.org/geo-lod/hasCertaintyDescription": "findspot mentioned in a scientific paper", "http://rdfs.org/ns/void#inDataset.value": "314"}, "geometry": {"type": "Point", "coordinates": [14.2559, 40.7192], "crs": "4326"}}, {"type": "Feature", "id": "http://w3id.org/geo-lod/ci/cisite_60_geom", "name": " (ci:cisite_60_geom)", "dateprops": [], "properties": {"http://w3id.org/geo-lod/hasCertaintyDescription": "findspot mentioned in a scientific paper", "http://rdfs.org/ns/void#inDataset.value": "314"}, "geometry": {"type": "Point", "coordinates": [39.0473, 51.3858], "crs": "4326"}}, {"type": "Feature", "id": "http://w3id.org/geo-lod/ci/cisite_203_geom", "name": " (ci:cisite_203_geom)", "dateprops": [], "properties": {"http://w3id.org/geo-lod/hasCertaintyDescription": "findspot mentioned in a scientific paper", "http://rdfs.org/ns/void#inDataset.value": "314"}, "geometry": {"type": "Point", "coordinates": [6.5066, 50.2928], "crs": "4326"}}, {"type": "Feature", "id": "http://w3id.org/geo-lod/ci/cisite_48_geom", "name": " (ci:cisite_48_geom)", "dateprops": [], "properties": {"http://w3id.org/geo-lod/hasCertaintyDescription": "findspot mentioned in a scientific paper", "http://rdfs.org/ns/void#inDataset.value": "314"}, "geometry": {"type": "Point", "coordinates": [14.2921, 44.5104], "crs": "4326"}}, {"type": "Feature", "id": "http://w3id.org/geo-lod/ci/cisite_22_geom", "name": " (ci:cisite_22_geom)", "dateprops": [], "properties": {"http://w3id.org/geo-lod/hasCertaintyDescription": "findspot mentioned in a scientific paper", "http://rdfs.org/ns/void#inDataset.value": "314"}, "geometry": {"type": "Point", "coordinates": [14.1402, 40.8275], "crs": "4326"}}, {"type": "Feature", "id": "http://w3id.org/geo-lod/ci/cisite_34_geom", "name": " (ci:cisite_34_geom)", "dateprops": [], "properties": {"http://w3id.org/geo-lod/hasCertaintyDescription": "findspot mentioned in a scientific paper", "http://rdfs.org/ns/void#inDataset.value": "314"}, "geometry": {"type": "Point", "coordinates": [14.0477, 40.8111], "crs": "4326"}}, {"type": "Feature", "id": "http://w3id.org/geo-lod/ci/cisite_105_geom", "name": " (ci:cisite_105_geom)", "dateprops": [], "properties": {"http://w3id.org/geo-lod/hasCertaintyDescription": "findspot mentioned in a scientific paper", "http://rdfs.org/ns/void#inDataset.value": "314"}, "geometry": {"type": "Point", "coordinates": [27.9347, 44.2462], "crs": "4326"}}, {"type": "Feature", "id": "http://w3id.org/geo-lod/ci/cisite_59_geom", "name": " (ci:cisite_59_geom)", "dateprops": [], "properties": {"http://w3id.org/geo-lod/hasCertaintyDescription": "findspot mentioned in a scientific paper", "http://rdfs.org/ns/void#inDataset.value": "314"}, "geometry": {"type": "Point", "coordinates": [39.0517, 51.3858], "crs": "4326"}}, {"type": "Feature", "id": "http://w3id.org/geo-lod/ci/cisite_18_geom", "name": " (ci:cisite_18_geom)", "dateprops": [], "properties": {"http://w3id.org/geo-lod/hasCertaintyDescription": "findspot mentioned in a scientific paper", "http://rdfs.org/ns/void#inDataset.value": "314"}, "geometry": {"type": "Point", "coordinates": [14.4347, 40.6484], "crs": "4326"}}, {"type": "Feature", "id": "http://w3id.org/geo-lod/ci/cisite_26_geom", "name": " (ci:cisite_26_geom)", "dateprops": [], "properties": {"http://w3id.org/geo-lod/hasCertaintyDescription": "findspot mentioned in a scientific paper", "http://rdfs.org/ns/void#inDataset.value": "314"}, "geometry": {"type": "Point", "coordinates": [14.1489, 40.8888], "crs": "4326"}}, {"type": "Feature", "id": "http://w3id.org/geo-lod/ci/cisite_21_geom", "name": " (ci:cisite_21_geom)", "dateprops": [], "properties": {"http://w3id.org/geo-lod/hasCertaintyDescription": "findspot mentioned in a scientific paper", "http://rdfs.org/ns/void#inDataset.value": "314"}, "geometry": {"type": "Point", "coordinates": [14.7979, 40.7615], "crs": "4326"}}, {"type": "Feature", "id": "http://w3id.org/geo-lod/ci/cisite_32_geom", "name": " (ci:cisite_32_geom)", "dateprops": [], "properties": {"http://w3id.org/geo-lod/hasCertaintyDescription": "findspot mentioned in a scientific paper", "http://rdfs.org/ns/void#inDataset.value": "314"}, "geometry": {"type": "Point", "coordinates": [14.8706, 40.8567], "crs": "4326"}}, {"type": "Feature", "id": "http://w3id.org/geo-lod/ci/cisite_19_geom", "name": " (ci:cisite_19_geom)", "dateprops": [], "properties": {"http://w3id.org/geo-lod/hasCertaintyDescription": "findspot mentioned in a scientific paper", "http://rdfs.org/ns/void#inDataset.value": "314"}, "geometry": {"type": "Point", "coordinates": [15.615, 41.6541], "crs": "4326"}}, {"type": "Feature", "id": "http://w3id.org/geo-lod/ci/cisite_14_geom", "name": " (ci:cisite_14_geom)", "dateprops": [], "properties": {"http://w3id.org/geo-lod/hasCertaintyDescription": "findspot mentioned in a scientific paper", "http://rdfs.org/ns/void#inDataset.value": "314"}, "geometry": {"type": "Point", "coordinates": [15.5699, 40.949], "crs": "4326"}}, {"type": "Feature", "id": "http://w3id.org/geo-lod/ci/cisite_24_geom", "name": " (ci:cisite_24_geom)", "dateprops": [], "properties": {"http://w3id.org/geo-lod/hasCertaintyDescription": "findspot mentioned in a scientific paper", "http://rdfs.org/ns/void#inDataset.value": "314"}, "geometry": {"type": "Point", "coordinates": [14.089, 40.8215], "crs": "4326"}}, {"type": "Feature", "id": "http://w3id.org/geo-lod/ci/cisite_30_geom", "name": " (ci:cisite_30_geom)", "dateprops": [], "properties": {"http://w3id.org/geo-lod/hasCertaintyDescription": "findspot mentioned in a scientific paper", "http://rdfs.org/ns/void#inDataset.value": "314"}, "geometry": {"type": "Point", "coordinates": [14.3313, 41.0518], "crs": "4326"}}, {"type": "Feature", "id": "http://w3id.org/geo-lod/ci/cisite_3_geom", "name": " (ci:cisite_3_geom)", "dateprops": [], "properties": {"http://w3id.org/geo-lod/hasCertaintyDescription": "findspot mentioned in a scientific paper", "http://rdfs.org/ns/void#inDataset.value": "314"}, "geometry": {"type": "Point", "coordinates": [14.768, 40.7119], "crs": "4326"}}, {"type": "Feature", "id": "http://w3id.org/geo-lod/ci/cisite_42_geom", "name": " (ci:cisite_42_geom)", "dateprops": [], "properties": {"http://w3id.org/geo-lod/hasCertaintyDescription": "findspot mentioned in a scientific paper", "http://rdfs.org/ns/void#inDataset.value": "314"}, "geometry": {"type": "Point", "coordinates": [22.7024, 43.6519], "crs": "4326"}}, {"type": "Feature", "id": "http://w3id.org/geo-lod/ci/cisite_15_geom", "name": " (ci:cisite_15_geom)", "dateprops": [], "properties": {"http://w3id.org/geo-lod/hasCertaintyDescription": "findspot mentioned in a scientific paper", "http://rdfs.org/ns/void#inDataset.value": "314"}, "geometry": {"type": "Point", "coordinates": [15.6098, 40.9319], "crs": "4326"}}, {"type": "Feature", "id": "http://w3id.org/geo-lod/ci/cisite_47_geom", "name": " (ci:cisite_47_geom)", "dateprops": [], "properties": {"http://w3id.org/geo-lod/hasCertaintyDescription": "findspot mentioned in a scientific paper", "http://rdfs.org/ns/void#inDataset.value": "314"}, "geometry": {"type": "Point", "coordinates": [24.2274, 40.9794], "crs": "4326"}}, {"type": "Feature", "id": "http://w3id.org/geo-lod/ci/cisite_28_geom", "name": " (ci:cisite_28_geom)", "dateprops": [], "properties": {"http://w3id.org/geo-lod/hasCertaintyDescription": "findspot mentioned in a scientific paper", "http://rdfs.org/ns/void#inDataset.value": "314"}, "geometry": {"type": "Point", "coordinates": [14.7402, 40.9746], "crs": "4326"}}, {"type": "Feature", "id": "http://w3id.org/geo-lod/ci/cisite_16_geom", "name": " (ci:cisite_16_geom)", "dateprops": [], "properties": {"http://w3id.org/geo-lod/hasCertaintyDescription": "findspot mentioned in a scientific paper", "http://rdfs.org/ns/void#inDataset.value": "314"}, "geometry": {"type": "Point", "coordinates": [16.2833, 41.0047], "crs": "4326"}}, {"type": "Feature", "id": "http://w3id.org/geo-lod/ci/cisite_54_geom", "name": " (ci:cisite_54_geom)", "dateprops": [], "properties": {"http://w3id.org/geo-lod/hasCertaintyDescription": "findspot mentioned in a scientific paper", "http://rdfs.org/ns/void#inDataset.value": "314"}, "geometry": {"type": "Point", "coordinates": [27.8491, 44.3921], "crs": "4326"}}, {"type": "Feature", "id": "http://w3id.org/geo-lod/ci/cisite_5_geom", "name": " (ci:cisite_5_geom)", "dateprops": [], "properties": {"http://w3id.org/geo-lod/hasCertaintyDescription": "findspot mentioned in a scientific paper", "http://rdfs.org/ns/void#inDataset.value": "314"}, "geometry": {"type": "Point", "coordinates": [15.2092, 40.4956], "crs": "4326"}}, {"type": "Feature", "id": "http://w3id.org/geo-lod/ci/cisite_11_geom", "name": " (ci:cisite_11_geom)", "dateprops": [], "properties": {"http://w3id.org/geo-lod/hasCertaintyDescription": "findspot mentioned in a scientific paper", "http://rdfs.org/ns/void#inDataset.value": "314"}, "geometry": {"type": "Point", "coordinates": [14.4476, 40.6619], "crs": "4326"}}, {"type": "Feature", "id": "http://w3id.org/geo-lod/ci/cisite_202_geom", "name": " (ci:cisite_202_geom)", "dateprops": [], "properties": {"http://w3id.org/geo-lod/hasCertaintyDescription": "findspot mentioned in a scientific paper", "http://rdfs.org/ns/void#inDataset.value": "314"}, "geometry": {"type": "Point", "coordinates": [6.5949, 50.2821], "crs": "4326"}}, {"type": "Feature", "id": "http://w3id.org/geo-lod/ci/cisite_7_geom", "name": " (ci:cisite_7_geom)", "dateprops": [], "properties": {"http://w3id.org/geo-lod/hasCertaintyDescription": "findspot mentioned in a scientific paper", "http://rdfs.org/ns/void#inDataset.value": "314"}, "geometry": {"type": "Point", "coordinates": [14.056, 40.8381], "crs": "4326"}}, {"type": "Feature", "id": "http://w3id.org/geo-lod/ci/cisite_37_geom", "name": " (ci:cisite_37_geom)", "dateprops": [], "properties": {"http://w3id.org/geo-lod/hasCertaintyDescription": "findspot mentioned in a scientific paper", "http://rdfs.org/ns/void#inDataset.value": "314"}, "geometry": {"type": "Point", "coordinates": [14.7906, 40.7616], "crs": "4326"}}, {"type": "Feature", "id": "http://w3id.org/geo-lod/ci/cisite_44_geom", "name": " (ci:cisite_44_geom)", "dateprops": [], "properties": {"http://w3id.org/geo-lod/hasCertaintyDescription": "findspot mentioned in a scientific paper", "http://rdfs.org/ns/void#inDataset.value": "314"}, "geometry": {"type": "Point", "coordinates": [24.0053, 43.1907], "crs": "4326"}}, {"type": "Feature", "id": "http://w3id.org/geo-lod/ci/cisite_29_geom", "name": " (ci:cisite_29_geom)", "dateprops": [], "properties": {"http://w3id.org/geo-lod/hasCertaintyDescription": "findspot mentioned in a scientific paper", "http://rdfs.org/ns/void#inDataset.value": "314"}, "geometry": {"type": "Point", "coordinates": [14.3381, 41.0369], "crs": "4326"}}, {"type": "Feature", "id": "http://w3id.org/geo-lod/ci/cisite_64_geom", "name": " (ci:cisite_64_geom)", "dateprops": [], "properties": {"http://w3id.org/geo-lod/hasCertaintyDescription": "findspot mentioned in a scientific paper", "http://rdfs.org/ns/void#inDataset.value": "314"}, "geometry": {"type": "Point", "coordinates": [31.8, 47.43], "crs": "4326"}}, {"type": "Feature", "id": "http://w3id.org/geo-lod/ci/cisite_104_geom", "name": " (ci:cisite_104_geom)", "dateprops": [], "properties": {"http://w3id.org/geo-lod/hasCertaintyDescription": "findspot mentioned in a scientific paper", "http://rdfs.org/ns/void#inDataset.value": "314"}, "geometry": {"type": "Point", "coordinates": [20.2802, 44.9032], "crs": "4326"}}, {"type": "Feature", "id": "http://w3id.org/geo-lod/ci/cisite_35_geom", "name": " (ci:cisite_35_geom)", "dateprops": [], "properties": {"http://w3id.org/geo-lod/hasCertaintyDescription": "findspot mentioned in a scientific paper", "http://rdfs.org/ns/void#inDataset.value": "314"}, "geometry": {"type": "Point", "coordinates": [14.1486, 40.8926], "crs": "4326"}}, {"type": "Feature", "id": "http://w3id.org/geo-lod/ci/cisite_50_geom", "name": " (ci:cisite_50_geom)", "dateprops": [], "properties": {"http://w3id.org/geo-lod/hasCertaintyDescription": "findspot mentioned in a scientific paper", "http://rdfs.org/ns/void#inDataset.value": "314"}, "geometry": {"type": "Point", "coordinates": [21.1617, 41.8117], "crs": "4326"}}, {"type": "Feature", "id": "http://w3id.org/geo-lod/ci/cisite_9_geom", "name": " (ci:cisite_9_geom)", "dateprops": [], "properties": {"http://w3id.org/geo-lod/hasCertaintyDescription": "findspot mentioned in a scientific paper", "http://rdfs.org/ns/void#inDataset.value": "314"}, "geometry": {"type": "Point", "coordinates": [14.0366, 40.926], "crs": "4326"}}, {"type": "Feature", "id": "http://w3id.org/geo-lod/ci/cisite_41_geom", "name": " (ci:cisite_41_geom)", "dateprops": [], "properties": {"http://w3id.org/geo-lod/hasCertaintyDescription": "findspot mentioned in a scientific paper", "http://rdfs.org/ns/void#inDataset.value": "314"}, "geometry": {"type": "Point", "coordinates": [20.6749, 40.9874], "crs": "4326"}}, {"type": "Feature", "id": "http://w3id.org/geo-lod/ci/cisite_1_geom", "name": " (ci:cisite_1_geom)", "dateprops": [], "properties": {"http://w3id.org/geo-lod/hasCertaintyDescription": "findspot mentioned in a scientific paper", "http://rdfs.org/ns/void#inDataset.value": "314"}, "geometry": {"type": "Point", "coordinates": [14.3624, 40.9489], "crs": "4326"}}, {"type": "Feature", "id": "http://w3id.org/geo-lod/ci/cisite_103_geom", "name": " (ci:cisite_103_geom)", "dateprops": [], "properties": {"http://w3id.org/geo-lod/hasCertaintyDescription": "findspot mentioned in a scientific paper", "http://rdfs.org/ns/void#inDataset.value": "314"}, "geometry": {"type": "Point", "coordinates": [18.7587, 46.0874], "crs": "4326"}}, {"type": "Feature", "id": "http://w3id.org/geo-lod/ci/cisite_39_geom", "name": " (ci:cisite_39_geom)", "dateprops": [], "properties": {"http://w3id.org/geo-lod/hasCertaintyDescription": "findspot mentioned in a scientific paper", "http://rdfs.org/ns/void#inDataset.value": "314"}, "geometry": {"type": "Point", "coordinates": [14.1607, 41.0], "crs": "4326"}}, {"type": "Feature", "id": "http://w3id.org/geo-lod/ci/cisite_40_geom", "name": " (ci:cisite_40_geom)", "dateprops": [], "properties": {"http://w3id.org/geo-lod/hasCertaintyDescription": "findspot mentioned in a scientific paper", "http://rdfs.org/ns/void#inDataset.value": "314"}, "geometry": {"type": "Point", "coordinates": [14.5194, 40.8005], "crs": "4326"}}, {"type": "Feature", "id": "http://w3id.org/geo-lod/ci/cisite_6_geom", "name": " (ci:cisite_6_geom)", "dateprops": [], "properties": {"http://w3id.org/geo-lod/hasCertaintyDescription": "findspot mentioned in a scientific paper", "http://rdfs.org/ns/void#inDataset.value": "314"}, "geometry": {"type": "Point", "coordinates": [14.7662, 40.7198], "crs": "4326"}}], "numberMatched": 74, "numberReturned": 74, "bbox": [6.5066, 32.9002, 45.0, 55.0], "crs": "http://www.opengis.net/def/crs/EPSG/0/4326"}