{"type": "FeatureCollection", "id": "http://w3id.org/geo-lod/AllPalaeoclimateSites_Collection", "name": "All palaeoclimate sites collection", "features": [{"type": "Feature", "id": "http://w3id.org/geo-lod/epica/site_dome_c", "name": "EPICA Dome C, East Antarctica (epica:site_dome_c)", "dateprops": [], "properties": {"http://www.w3.org/2000/01/rdf-schema#label": "EPICA Dome C, East Antarctica", "http://www.cidoc-crm.org/cidoc-crm/P87_is_identified_by": "EDC", "http://www.w3.org/2000/01/rdf-schema#comment": "Drilling site of the European Project for Ice Coring in Antarctica on the East Antarctic plateau, 3233 m above sea level. The published records give two slightly different positions for it; both are kept on the borehole nodes below.", "http://rdfs.org/ns/void#inDataset.value": "15979"}, "geometry": {"type": "Point", "coordinates": [123.35, -75.1], "crs": "4326"}}], "numberMatched": 1, "numberReturned": 1, "bbox": [123.35, -75.1, 123.35, -75.1], "crs": "http://www.opengis.net/def/crs/EPSG/0/4326"}