{"type": "FeatureCollection", "id": "http://orcid.org/0000-0002-3246-3531", "name": "0000-0002-3246-3531", "features": [{"type": "Feature", "id": "http://w3id.org/geo-lod/ci/cisite_104", "name": "", "dateprops": [], "properties": {"http://purl.org/dc/terms/creator": ["https://orcid.org/0000-0002-3246-3531", "https://orcid.org/0000-0003-1100-6494"], "http://purl.org/dc/terms/license": ["https://creativecommons.org/licenses/by/4.0/"], "http://purl.org/dc/terms/rightsHolder": ["https://orcid.org/0000-0002-3246-3531", "https://orcid.org/0000-0003-1100-6494"], "http://rdfs.org/ns/void#inDataset": ["http://w3id.org/geo-lod/geo-lod"], "http://w3id.org/geo-lod/hasCertaintyDescription": ["findspot mentioned in a scientific paper"], "http://w3id.org/geo-lod/hasCertaintyLevel": ["http://fuzzy-sl.squirrel.link/ontology/medium"], "http://w3id.org/geo-lod/hasLiteratureReference": ["Buggle, B. et al. (2013)", "Buggle, B. et al. (2014)", "Obreht, I. et al. (2017), Fig. 1"], "http://w3id.org/geo-lod/hasSpatialType": ["http://fuzzy-sl.squirrel.link/ontology/UnknownCategory"], "http://www.opengis.net/ont/geosparql#hasGeometry": ["http://w3id.org/geo-lod/ci/cisite_104_geom"], "http://www.w3.org/1999/02/22-rdf-syntax-ns#type": ["http://fuzzy-sl.squirrel.link/ontology/Site", "http://w3id.org/geo-lod/CIFindspot", "http://www.w3.org/ns/prov#Entity", "https://pleiades.stoa.org/places/vocab#Place"], "http://www.w3.org/2000/01/rdf-schema#comment": ["CI findspot related from literature"], "http://www.w3.org/2000/01/rdf-schema#label": ["Batajnica"], "http://www.w3.org/2004/02/skos/core#closeMatch": ["https://sws.geonames.org/792838"], "http://www.w3.org/2004/02/skos/core#prefLabel": ["Batajnica"], "http://www.w3.org/2004/02/skos/core#scopeNote": ["CI findspot related from literature"], "http://www.w3.org/ns/prov#wasAttributedTo": ["http://orcid.org/0000-0002-3246-3531", "https://github.com/Research-Squirrel-Engineers/campanian-ignimbrite-geo/blob/main/py/CI.py"], "http://www.w3.org/ns/prov#wasDerivedFrom": ["https://github.com/Research-Squirrel-Engineers/campanian-ignimbrite-geo"], "http://www.w3.org/ns/prov#wasGeneratedBy": ["http://w3id.org/geo-lod/ci/cisite_104_activity", "http://w3id.org/geo-lod/ci/cisite_104_pyscript"]}, "geometry": {"type": "Point", "coordinates": [20.2802, 44.9032], "crs": "4326"}, "crs": "EPSG:4326"}, {"type": "Feature", "id": "http://w3id.org/geo-lod/ci/cisite_55", "name": "", "dateprops": [], "properties": {"http://fuzzy-sl.squirrel.link/ontology/spatialCloseMatch": ["http://sws.geonames.org/791630"], "http://purl.org/dc/terms/creator": ["https://orcid.org/0000-0002-3246-3531", "https://orcid.org/0000-0003-1100-6494"], "http://purl.org/dc/terms/license": ["https://creativecommons.org/licenses/by/4.0/"], "http://purl.org/dc/terms/rightsHolder": ["https://orcid.org/0000-0002-3246-3531", "https://orcid.org/0000-0003-1100-6494"], "http://rdfs.org/ns/void#inDataset": ["http://w3id.org/geo-lod/geo-lod"], "http://w3id.org/geo-lod/hasCertaintyDescription": ["findspot mentioned in a scientific paper"], "http://w3id.org/geo-lod/hasCertaintyLevel": ["http://fuzzy-sl.squirrel.link/ontology/low"], "http://w3id.org/geo-lod/hasLiteratureReference": ["Obreht et al., 2017"], "http://w3id.org/geo-lod/hasSpatialType": ["http://fuzzy-sl.squirrel.link/ontology/Plateau"], "http://www.opengis.net/ont/geosparql#hasGeometry": ["http://w3id.org/geo-lod/ci/cisite_55_geom"], "http://www.w3.org/1999/02/22-rdf-syntax-ns#type": ["http://fuzzy-sl.squirrel.link/ontology/Site", "http://w3id.org/geo-lod/CIFindspot", "http://www.w3.org/ns/prov#Entity", "https://pleiades.stoa.org/places/vocab#Place"], "http://www.w3.org/2000/01/rdf-schema#comment": ["CI findspot related from literature"], "http://www.w3.org/2000/01/rdf-schema#label": ["Lower Danube Basin (Romania)"], "http://www.w3.org/2004/02/skos/core#prefLabel": ["Lower Danube Basin (Romania)"], "http://www.w3.org/2004/02/skos/core#scopeNote": ["CI findspot related from literature"], "http://www.w3.org/ns/prov#wasAttributedTo": ["http://orcid.org/0000-0002-3246-3531", "https://github.com/Research-Squirrel-Engineers/campanian-ignimbrite-geo/blob/main/py/CI.py"], "http://www.w3.org/ns/prov#wasDerivedFrom": ["https://github.com/Research-Squirrel-Engineers/campanian-ignimbrite-geo"], "http://www.w3.org/ns/prov#wasGeneratedBy": ["http://w3id.org/geo-lod/ci/cisite_55_activity", "http://w3id.org/geo-lod/ci/cisite_55_pyscript"]}, "geometry": {"type": "Point", "coordinates": [25.292, 43.655], "crs": "4326"}, "crs": "EPSG:4326"}, {"type": "Feature", "id": "http://w3id.org/geo-lod/ci/cisite_106", "name": "", "dateprops": [], "properties": {"http://purl.org/dc/terms/creator": ["https://orcid.org/0000-0002-3246-3531", "https://orcid.org/0000-0003-1100-6494"], "http://purl.org/dc/terms/license": ["https://creativecommons.org/licenses/by/4.0/"], "http://purl.org/dc/terms/rightsHolder": ["https://orcid.org/0000-0002-3246-3531", "https://orcid.org/0000-0003-1100-6494"], "http://rdfs.org/ns/void#inDataset": ["http://w3id.org/geo-lod/geo-lod"], "http://w3id.org/geo-lod/hasCertaintyDescription": ["findspot mentioned in a scientific paper"], "http://w3id.org/geo-lod/hasCertaintyLevel": ["http://fuzzy-sl.squirrel.link/ontology/medium"], "http://w3id.org/geo-lod/hasLiteratureReference": ["Obreht, I. et al. (2017), Fig. 1", "Panagiotopoulos, K. (2014)"], "http://w3id.org/geo-lod/hasSpatialType": ["http://fuzzy-sl.squirrel.link/ontology/Lake"], "http://www.opengis.net/ont/geosparql#hasGeometry": ["http://w3id.org/geo-lod/ci/cisite_106_geom"], "http://www.w3.org/1999/02/22-rdf-syntax-ns#type": ["http://fuzzy-sl.squirrel.link/ontology/Site", "http://w3id.org/geo-lod/CIFindspot", "http://www.w3.org/ns/prov#Entity", "https://pleiades.stoa.org/places/vocab#Place"], "http://www.w3.org/2000/01/rdf-schema#comment": ["CI findspot related from literature"], "http://www.w3.org/2000/01/rdf-schema#label": ["Lake Prespa"], "http://www.w3.org/2004/02/skos/core#closeMatch": ["https://sws.geonames.org/786766"], "http://www.w3.org/2004/02/skos/core#prefLabel": ["Lake Prespa"], "http://www.w3.org/2004/02/skos/core#scopeNote": ["CI findspot related from literature"], "http://www.w3.org/ns/prov#wasAttributedTo": ["http://orcid.org/0000-0002-3246-3531", "https://github.com/Research-Squirrel-Engineers/campanian-ignimbrite-geo/blob/main/py/CI.py"], "http://www.w3.org/ns/prov#wasDerivedFrom": ["https://github.com/Research-Squirrel-Engineers/campanian-ignimbrite-geo"], "http://www.w3.org/ns/prov#wasGeneratedBy": ["http://w3id.org/geo-lod/ci/cisite_106_activity", "http://w3id.org/geo-lod/ci/cisite_106_pyscript"]}, "geometry": {"type": "Point", "coordinates": [21.0, 40.9167], "crs": "4326"}, "crs": "EPSG:4326"}, {"type": "Feature", "id": "http://w3id.org/geo-lod/ci/cisite_8", "name": "", "dateprops": [], "properties": {"http://purl.org/dc/terms/creator": ["https://orcid.org/0000-0002-3246-3531", "https://orcid.org/0000-0003-1100-6494"], "http://purl.org/dc/terms/license": ["https://creativecommons.org/licenses/by/4.0/"], "http://purl.org/dc/terms/rightsHolder": ["https://orcid.org/0000-0002-3246-3531", "https://orcid.org/0000-0003-1100-6494"], "http://rdfs.org/ns/void#inDataset": ["http://w3id.org/geo-lod/geo-lod"], "http://w3id.org/geo-lod/hasCertaintyDescription": ["findspot mentioned in a scientific paper"], "http://w3id.org/geo-lod/hasCertaintyLevel": ["http://fuzzy-sl.squirrel.link/ontology/medium"], "http://w3id.org/geo-lod/hasLiteratureReference": ["Arienzo et al., 2009"], "http://w3id.org/geo-lod/hasSpatialType": ["http://fuzzy-sl.squirrel.link/ontology/Bight"], "http://www.opengis.net/ont/geosparql#hasGeometry": ["http://w3id.org/geo-lod/ci/cisite_8_geom"], "http://www.w3.org/1999/02/22-rdf-syntax-ns#type": ["http://fuzzy-sl.squirrel.link/ontology/Site", "http://w3id.org/geo-lod/CIFindspot", "http://www.w3.org/ns/prov#Entity", "https://pleiades.stoa.org/places/vocab#Place"], "http://www.w3.org/2000/01/rdf-schema#comment": ["CI findspot related from literature"], "http://www.w3.org/2000/01/rdf-schema#label": ["Gulf of Naples"], "http://www.w3.org/2004/02/skos/core#closeMatch": ["https://sws.geonames.org/3172393"], "http://www.w3.org/2004/02/skos/core#prefLabel": ["Gulf of Naples"], "http://www.w3.org/2004/02/skos/core#scopeNote": ["CI findspot related from literature"], "http://www.w3.org/ns/prov#wasAttributedTo": ["http://orcid.org/0000-0002-3246-3531", "https://github.com/Research-Squirrel-Engineers/campanian-ignimbrite-geo/blob/main/py/CI.py"], "http://www.w3.org/ns/prov#wasDerivedFrom": ["https://github.com/Research-Squirrel-Engineers/campanian-ignimbrite-geo"], "http://www.w3.org/ns/prov#wasGeneratedBy": ["http://w3id.org/geo-lod/ci/cisite_8_activity", "http://w3id.org/geo-lod/ci/cisite_8_pyscript"]}, "geometry": {"type": "Point", "coordinates": [14.2559, 40.7192], "crs": "4326"}, "crs": "EPSG:4326"}, {"type": "Feature", "id": "http://w3id.org/geo-lod/ci/cisite_9", "name": "", "dateprops": [], "properties": {"http://fuzzy-sl.squirrel.link/ontology/spatialCloseMatch": ["https://sws.geonames.org/9881928"], "http://purl.org/dc/terms/creator": ["https://orcid.org/0000-0002-3246-3531", "https://orcid.org/0000-0003-1100-6494"], "http://purl.org/dc/terms/license": ["https://creativecommons.org/licenses/by/4.0/"], "http://purl.org/dc/terms/rightsHolder": ["https://orcid.org/0000-0002-3246-3531", "https://orcid.org/0000-0003-1100-6494"], "http://rdfs.org/ns/void#inDataset": ["http://w3id.org/geo-lod/geo-lod"], "http://w3id.org/geo-lod/hasCertaintyDescription": ["findspot mentioned in a scientific paper"], "http://w3id.org/geo-lod/hasCertaintyLevel": ["http://fuzzy-sl.squirrel.link/ontology/medium"], "http://w3id.org/geo-lod/hasLiteratureReference": ["Civetta et al., 1997", "Scandone et al., 1991"], "http://w3id.org/geo-lod/hasSpatialType": ["http://fuzzy-sl.squirrel.link/ontology/InhabitedPlace"], "http://www.opengis.net/ont/geosparql#hasGeometry": ["http://w3id.org/geo-lod/ci/cisite_9_geom"], "http://www.w3.org/1999/02/22-rdf-syntax-ns#type": ["http://fuzzy-sl.squirrel.link/ontology/Site", "http://w3id.org/geo-lod/CIFindspot", "http://www.w3.org/ns/prov#Entity", "https://pleiades.stoa.org/places/vocab#Place"], "http://www.w3.org/2000/01/rdf-schema#comment": ["CI findspot related from literature"], "http://www.w3.org/2000/01/rdf-schema#label": ["Lago Patria (Naples)"], "http://www.w3.org/2004/02/skos/core#prefLabel": ["Lago Patria (Naples)"], "http://www.w3.org/2004/02/skos/core#scopeNote": ["CI findspot related from literature"], "http://www.w3.org/ns/prov#wasAttributedTo": ["http://orcid.org/0000-0002-3246-3531", "https://github.com/Research-Squirrel-Engineers/campanian-ignimbrite-geo/blob/main/py/CI.py"], "http://www.w3.org/ns/prov#wasDerivedFrom": ["https://github.com/Research-Squirrel-Engineers/campanian-ignimbrite-geo"], "http://www.w3.org/ns/prov#wasGeneratedBy": ["http://w3id.org/geo-lod/ci/cisite_9_activity", "http://w3id.org/geo-lod/ci/cisite_9_pyscript"]}, "geometry": {"type": "Point", "coordinates": [14.0366, 40.926], "crs": "4326"}, "crs": "EPSG:4326"}, {"type": "Feature", "id": "http://w3id.org/geo-lod/ci/cisite_27", "name": "", "dateprops": [], "properties": {"http://purl.org/dc/terms/creator": ["https://orcid.org/0000-0002-3246-3531", "https://orcid.org/0000-0003-1100-6494"], "http://purl.org/dc/terms/license": ["https://creativecommons.org/licenses/by/4.0/"], "http://purl.org/dc/terms/rightsHolder": ["https://orcid.org/0000-0002-3246-3531", "https://orcid.org/0000-0003-1100-6494"], "http://rdfs.org/ns/void#inDataset": ["http://w3id.org/geo-lod/geo-lod"], "http://w3id.org/geo-lod/hasCertaintyDescription": ["findspot mentioned in a scientific paper"], "http://w3id.org/geo-lod/hasCertaintyLevel": ["http://fuzzy-sl.squirrel.link/ontology/medium"], "http://w3id.org/geo-lod/hasLiteratureReference": ["Civetta et al., 1997"], "http://w3id.org/geo-lod/hasSpatialType": ["http://fuzzy-sl.squirrel.link/ontology/InhabitedPlace"], "http://www.opengis.net/ont/geosparql#hasGeometry": ["http://w3id.org/geo-lod/ci/cisite_27_geom"], "http://www.w3.org/1999/02/22-rdf-syntax-ns#type": ["http://fuzzy-sl.squirrel.link/ontology/Site", "http://w3id.org/geo-lod/CIFindspot", "http://www.w3.org/ns/prov#Entity", "https://pleiades.stoa.org/places/vocab#Place"], "http://www.w3.org/2000/01/rdf-schema#comment": ["CI findspot related from literature"], "http://www.w3.org/2000/01/rdf-schema#label": ["Sant\u2018 Agata dei due Golfi"], "http://www.w3.org/2004/02/skos/core#closeMatch": ["http://openstreetmap.org/node/705576753", "http://wikidata.org/entity/Q1860399"], "http://www.w3.org/2004/02/skos/core#prefLabel": ["Sant\u2018 Agata dei due Golfi"], "http://www.w3.org/2004/02/skos/core#scopeNote": ["CI findspot related from literature"], "http://www.w3.org/ns/prov#wasAttributedTo": ["http://orcid.org/0000-0002-3246-3531", "https://github.com/Research-Squirrel-Engineers/campanian-ignimbrite-geo/blob/main/py/CI.py"], "http://www.w3.org/ns/prov#wasDerivedFrom": ["https://github.com/Research-Squirrel-Engineers/campanian-ignimbrite-geo"], "http://www.w3.org/ns/prov#wasGeneratedBy": ["http://w3id.org/geo-lod/ci/cisite_27_activity", "http://w3id.org/geo-lod/ci/cisite_27_pyscript"]}, "geometry": {"type": "Point", "coordinates": [14.3733, 40.607], "crs": "4326"}, "crs": "EPSG:4326"}, {"type": "Feature", "id": "http://w3id.org/geo-lod/ci/cisite_102", "name": "", "dateprops": [], "properties": {"http://purl.org/dc/terms/creator": ["https://orcid.org/0000-0002-3246-3531", "https://orcid.org/0000-0003-1100-6494"], "http://purl.org/dc/terms/license": ["https://creativecommons.org/licenses/by/4.0/"], "http://purl.org/dc/terms/rightsHolder": ["https://orcid.org/0000-0002-3246-3531", "https://orcid.org/0000-0003-1100-6494"], "http://rdfs.org/ns/void#inDataset": ["http://w3id.org/geo-lod/geo-lod"], "http://w3id.org/geo-lod/hasCertaintyDescription": ["findspot mentioned in a scientific paper"], "http://w3id.org/geo-lod/hasCertaintyLevel": ["http://fuzzy-sl.squirrel.link/ontology/medium"], "http://w3id.org/geo-lod/hasLiteratureReference": ["Obreht, I. et al. (2016)", "Obreht, I. et al. (2017), Fig. 1"], "http://w3id.org/geo-lod/hasSpatialType": ["http://fuzzy-sl.squirrel.link/ontology/UnknownCategory"], "http://www.opengis.net/ont/geosparql#hasGeometry": ["http://w3id.org/geo-lod/ci/cisite_102_geom"], "http://www.w3.org/1999/02/22-rdf-syntax-ns#type": ["http://fuzzy-sl.squirrel.link/ontology/Site", "http://w3id.org/geo-lod/CIFindspot", "http://www.w3.org/ns/prov#Entity", "https://pleiades.stoa.org/places/vocab#Place"], "http://www.w3.org/2000/01/rdf-schema#comment": ["CI findspot related from literature"], "http://www.w3.org/2000/01/rdf-schema#label": ["Stala\u0107"], "http://www.w3.org/2004/02/skos/core#closeMatch": ["https://sws.geonames.org/838724"], "http://www.w3.org/2004/02/skos/core#prefLabel": ["Stala\u0107"], "http://www.w3.org/2004/02/skos/core#scopeNote": ["CI findspot related from literature"], "http://www.w3.org/ns/prov#wasAttributedTo": ["http://orcid.org/0000-0002-3246-3531", "https://github.com/Research-Squirrel-Engineers/campanian-ignimbrite-geo/blob/main/py/CI.py"], "http://www.w3.org/ns/prov#wasDerivedFrom": ["https://github.com/Research-Squirrel-Engineers/campanian-ignimbrite-geo"], "http://www.w3.org/ns/prov#wasGeneratedBy": ["http://w3id.org/geo-lod/ci/cisite_102_activity", "http://w3id.org/geo-lod/ci/cisite_102_pyscript"]}, "geometry": {"type": "Point", "coordinates": [21.4058, 43.6728], "crs": "4326"}, "crs": "EPSG:4326"}, {"type": "Feature", "id": "http://w3id.org/geo-lod/ci/cisite_105", "name": "", "dateprops": [], "properties": {"http://purl.org/dc/terms/creator": ["https://orcid.org/0000-0002-3246-3531", "https://orcid.org/0000-0003-1100-6494"], "http://purl.org/dc/terms/license": ["https://creativecommons.org/licenses/by/4.0/"], "http://purl.org/dc/terms/rightsHolder": ["https://orcid.org/0000-0002-3246-3531", "https://orcid.org/0000-0003-1100-6494"], "http://rdfs.org/ns/void#inDataset": ["http://w3id.org/geo-lod/geo-lod"], "http://w3id.org/geo-lod/hasCertaintyDescription": ["findspot mentioned in a scientific paper"], "http://w3id.org/geo-lod/hasCertaintyLevel": ["http://fuzzy-sl.squirrel.link/ontology/medium"], "http://w3id.org/geo-lod/hasLiteratureReference": ["Obreht, I. et al. (2017), Fig. 1", "Zeeden, C. et al. (2018)"], "http://w3id.org/geo-lod/hasSpatialType": ["http://fuzzy-sl.squirrel.link/ontology/UnknownCategory"], "http://www.opengis.net/ont/geosparql#hasGeometry": ["http://w3id.org/geo-lod/ci/cisite_105_geom"], "http://www.w3.org/1999/02/22-rdf-syntax-ns#type": ["http://fuzzy-sl.squirrel.link/ontology/Site", "http://w3id.org/geo-lod/CIFindspot", "http://www.w3.org/ns/prov#Entity", "https://pleiades.stoa.org/places/vocab#Place"], "http://www.w3.org/2000/01/rdf-schema#comment": ["CI findspot related from literature"], "http://www.w3.org/2000/01/rdf-schema#label": ["Rasova"], "http://www.w3.org/2004/02/skos/core#closeMatch": ["https://sws.geonames.org/669148"], "http://www.w3.org/2004/02/skos/core#prefLabel": ["Rasova"], "http://www.w3.org/2004/02/skos/core#scopeNote": ["CI findspot related from literature"], "http://www.w3.org/ns/prov#wasAttributedTo": ["http://orcid.org/0000-0002-3246-3531", "https://github.com/Research-Squirrel-Engineers/campanian-ignimbrite-geo/blob/main/py/CI.py"], "http://www.w3.org/ns/prov#wasDerivedFrom": ["https://github.com/Research-Squirrel-Engineers/campanian-ignimbrite-geo"], "http://www.w3.org/ns/prov#wasGeneratedBy": ["http://w3id.org/geo-lod/ci/cisite_105_activity", "http://w3id.org/geo-lod/ci/cisite_105_pyscript"]}, "geometry": {"type": "Point", "coordinates": [27.9347, 44.2462], "crs": "4326"}, "crs": "EPSG:4326"}, {"type": "Feature", "id": "http://w3id.org/geo-lod/ci/cisite_19", "name": "", "dateprops": [], "properties": {"http://purl.org/dc/terms/creator": ["https://orcid.org/0000-0002-3246-3531", "https://orcid.org/0000-0003-1100-6494"], "http://purl.org/dc/terms/license": ["https://creativecommons.org/licenses/by/4.0/"], "http://purl.org/dc/terms/rightsHolder": ["https://orcid.org/0000-0002-3246-3531", "https://orcid.org/0000-0003-1100-6494"], "http://rdfs.org/ns/void#inDataset": ["http://w3id.org/geo-lod/geo-lod"], "http://w3id.org/geo-lod/hasCertaintyDescription": ["findspot mentioned in a scientific paper"], "http://w3id.org/geo-lod/hasCertaintyLevel": ["http://fuzzy-sl.squirrel.link/ontology/medium"], "http://w3id.org/geo-lod/hasLiteratureReference": ["Giaccio et al., 2008"], "http://w3id.org/geo-lod/hasSpatialType": ["http://fuzzy-sl.squirrel.link/ontology/ArchaeologicalSite", "http://fuzzy-sl.squirrel.link/ontology/Cave"], "http://www.opengis.net/ont/geosparql#hasGeometry": ["http://w3id.org/geo-lod/ci/cisite_19_geom"], "http://www.w3.org/1999/02/22-rdf-syntax-ns#type": ["http://fuzzy-sl.squirrel.link/ontology/Site", "http://w3id.org/geo-lod/CIArchaeologicalSite", "http://w3id.org/geo-lod/CIFindspot", "http://www.cidoc-crm.org/extensions/crmarchaeo/A2_Stratigraphic_Volume_Unit", "http://www.w3.org/ns/prov#Entity", "https://pleiades.stoa.org/places/vocab#Place"], "http://www.w3.org/2000/01/rdf-schema#comment": ["CI findspot related from literature"], "http://www.w3.org/2000/01/rdf-schema#label": ["Paglicci Cave"], "http://www.w3.org/2004/02/skos/core#closeMatch": ["http://openstreetmap.org/node/2293681037", "http://wikidata.org/entity/Q3777010"], "http://www.w3.org/2004/02/skos/core#prefLabel": ["Paglicci Cave"], "http://www.w3.org/2004/02/skos/core#scopeNote": ["CI findspot related from literature"], "http://www.w3.org/ns/prov#wasAttributedTo": ["http://orcid.org/0000-0002-3246-3531", "https://github.com/Research-Squirrel-Engineers/campanian-ignimbrite-geo/blob/main/py/CI.py"], "http://www.w3.org/ns/prov#wasDerivedFrom": ["https://github.com/Research-Squirrel-Engineers/campanian-ignimbrite-geo"], "http://www.w3.org/ns/prov#wasGeneratedBy": ["http://w3id.org/geo-lod/ci/cisite_19_activity", "http://w3id.org/geo-lod/ci/cisite_19_pyscript"]}, "geometry": {"type": "Point", "coordinates": [15.615, 41.6541], "crs": "4326"}, "crs": "EPSG:4326"}, {"type": "Feature", "id": "http://w3id.org/geo-lod/ci/cisite_6", "name": "", "dateprops": [], "properties": {"http://purl.org/dc/terms/creator": ["https://orcid.org/0000-0002-3246-3531", "https://orcid.org/0000-0003-1100-6494"], "http://purl.org/dc/terms/license": ["https://creativecommons.org/licenses/by/4.0/"], "http://purl.org/dc/terms/rightsHolder": ["https://orcid.org/0000-0002-3246-3531", "https://orcid.org/0000-0003-1100-6494"], "http://rdfs.org/ns/void#inDataset": ["http://w3id.org/geo-lod/geo-lod"], "http://w3id.org/geo-lod/hasCertaintyDescription": ["findspot mentioned in a scientific paper"], "http://w3id.org/geo-lod/hasCertaintyLevel": ["http://fuzzy-sl.squirrel.link/ontology/medium"], "http://w3id.org/geo-lod/hasLiteratureReference": ["Rosi et al., 1999"], "http://w3id.org/geo-lod/hasSpatialType": ["http://fuzzy-sl.squirrel.link/ontology/UnknownCategory"], "http://www.opengis.net/ont/geosparql#hasGeometry": ["http://w3id.org/geo-lod/ci/cisite_6_geom"], "http://www.w3.org/1999/02/22-rdf-syntax-ns#type": ["http://fuzzy-sl.squirrel.link/ontology/Site", "http://w3id.org/geo-lod/CIFindspot", "http://www.w3.org/ns/prov#Entity", "https://pleiades.stoa.org/places/vocab#Place"], "http://www.w3.org/2000/01/rdf-schema#comment": ["CI findspot related from literature"], "http://www.w3.org/2000/01/rdf-schema#label": ["Copecchia"], "http://www.w3.org/2004/02/skos/core#closeMatch": ["http://openstreetmap.org/node/4371325110", "http://wikidata.org/entity/Q3690987"], "http://www.w3.org/2004/02/skos/core#prefLabel": ["Copecchia"], "http://www.w3.org/2004/02/skos/core#scopeNote": ["CI findspot related from literature"], "http://www.w3.org/ns/prov#wasAttributedTo": ["http://orcid.org/0000-0002-3246-3531", "https://github.com/Research-Squirrel-Engineers/campanian-ignimbrite-geo/blob/main/py/CI.py"], "http://www.w3.org/ns/prov#wasDerivedFrom": ["https://github.com/Research-Squirrel-Engineers/campanian-ignimbrite-geo"], "http://www.w3.org/ns/prov#wasGeneratedBy": ["http://w3id.org/geo-lod/ci/cisite_6_activity", "http://w3id.org/geo-lod/ci/cisite_6_pyscript"]}, "geometry": {"type": "Point", "coordinates": [14.7662, 40.7198], "crs": "4326"}, "crs": "EPSG:4326"}, {"type": "Feature", "id": "http://w3id.org/geo-lod/ci/cisite_28", "name": "", "dateprops": [], "properties": {"http://purl.org/dc/terms/creator": ["https://orcid.org/0000-0002-3246-3531", "https://orcid.org/0000-0003-1100-6494"], "http://purl.org/dc/terms/license": ["https://creativecommons.org/licenses/by/4.0/"], "http://purl.org/dc/terms/rightsHolder": ["https://orcid.org/0000-0002-3246-3531", "https://orcid.org/0000-0003-1100-6494"], "http://rdfs.org/ns/void#inDataset": ["http://w3id.org/geo-lod/geo-lod"], "http://w3id.org/geo-lod/hasCertaintyDescription": ["findspot mentioned in a scientific paper"], "http://w3id.org/geo-lod/hasCertaintyLevel": ["http://fuzzy-sl.squirrel.link/ontology/medium"], "http://w3id.org/geo-lod/hasLiteratureReference": ["Rosi et al., 1999"], "http://w3id.org/geo-lod/hasSpatialType": ["http://fuzzy-sl.squirrel.link/ontology/InhabitedPlace"], "http://www.opengis.net/ont/geosparql#hasGeometry": ["http://w3id.org/geo-lod/ci/cisite_28_geom"], "http://www.w3.org/1999/02/22-rdf-syntax-ns#type": ["http://fuzzy-sl.squirrel.link/ontology/Site", "http://w3id.org/geo-lod/CIFindspot", "http://www.w3.org/ns/prov#Entity", "https://pleiades.stoa.org/places/vocab#Place"], "http://www.w3.org/2000/01/rdf-schema#comment": ["CI findspot related from literature"], "http://www.w3.org/2000/01/rdf-schema#label": ["Sant\u2018 Angelo a Scala"], "http://www.w3.org/2004/02/skos/core#closeMatch": ["http://openstreetmap.org/node/68567290", "http://wikidata.org/entity/Q55100"], "http://www.w3.org/2004/02/skos/core#prefLabel": ["Sant\u2018 Angelo a Scala"], "http://www.w3.org/2004/02/skos/core#scopeNote": ["CI findspot related from literature"], "http://www.w3.org/ns/prov#wasAttributedTo": ["http://orcid.org/0000-0002-3246-3531", "https://github.com/Research-Squirrel-Engineers/campanian-ignimbrite-geo/blob/main/py/CI.py"], "http://www.w3.org/ns/prov#wasDerivedFrom": ["https://github.com/Research-Squirrel-Engineers/campanian-ignimbrite-geo"], "http://www.w3.org/ns/prov#wasGeneratedBy": ["http://w3id.org/geo-lod/ci/cisite_28_activity", "http://w3id.org/geo-lod/ci/cisite_28_pyscript"]}, "geometry": {"type": "Point", "coordinates": [14.7402, 40.9746], "crs": "4326"}, "crs": "EPSG:4326"}, {"type": "Feature", "id": "http://w3id.org/geo-lod/ci/cisite_101", "name": "", "dateprops": [], "properties": {"http://purl.org/dc/terms/creator": ["https://orcid.org/0000-0002-3246-3531", "https://orcid.org/0000-0003-1100-6494"], "http://purl.org/dc/terms/license": ["https://creativecommons.org/licenses/by/4.0/"], "http://purl.org/dc/terms/rightsHolder": ["https://orcid.org/0000-0002-3246-3531", "https://orcid.org/0000-0003-1100-6494"], "http://rdfs.org/ns/void#inDataset": ["http://w3id.org/geo-lod/geo-lod"], "http://w3id.org/geo-lod/hasCertaintyDescription": ["findspot mentioned in a scientific paper"], "http://w3id.org/geo-lod/hasCertaintyLevel": ["http://fuzzy-sl.squirrel.link/ontology/medium"], "http://w3id.org/geo-lod/hasLiteratureReference": ["Obreht, I. et al. (2015)", "Obreht, I. et al. (2017), Fig. 1"], "http://w3id.org/geo-lod/hasSpatialType": ["http://fuzzy-sl.squirrel.link/ontology/UnknownCategory"], "http://www.opengis.net/ont/geosparql#hasGeometry": ["http://w3id.org/geo-lod/ci/cisite_101_geom"], "http://www.w3.org/1999/02/22-rdf-syntax-ns#type": ["http://fuzzy-sl.squirrel.link/ontology/Site", "http://w3id.org/geo-lod/CIFindspot", "http://www.w3.org/ns/prov#Entity", "https://pleiades.stoa.org/places/vocab#Place"], "http://www.w3.org/2000/01/rdf-schema#comment": ["CI findspot related from literature"], "http://www.w3.org/2000/01/rdf-schema#label": ["Orlovat"], "http://www.w3.org/2004/02/skos/core#closeMatch": ["https://sws.geonames.org/787391"], "http://www.w3.org/2004/02/skos/core#prefLabel": ["Orlovat"], "http://www.w3.org/2004/02/skos/core#scopeNote": ["CI findspot related from literature"], "http://www.w3.org/ns/prov#wasAttributedTo": ["http://orcid.org/0000-0002-3246-3531", "https://github.com/Research-Squirrel-Engineers/campanian-ignimbrite-geo/blob/main/py/CI.py"], "http://www.w3.org/ns/prov#wasDerivedFrom": ["https://github.com/Research-Squirrel-Engineers/campanian-ignimbrite-geo"], "http://www.w3.org/ns/prov#wasGeneratedBy": ["http://w3id.org/geo-lod/ci/cisite_101_activity", "http://w3id.org/geo-lod/ci/cisite_101_pyscript"]}, "geometry": {"type": "Point", "coordinates": [20.5809, 45.2417], "crs": "4326"}, "crs": "EPSG:4326"}, {"type": "Feature", "id": "http://w3id.org/geo-lod/ci/cisite_5", "name": "", "dateprops": [], "properties": {"http://purl.org/dc/terms/creator": ["https://orcid.org/0000-0002-3246-3531", "https://orcid.org/0000-0003-1100-6494"], "http://purl.org/dc/terms/license": ["https://creativecommons.org/licenses/by/4.0/"], "http://purl.org/dc/terms/rightsHolder": ["https://orcid.org/0000-0002-3246-3531", "https://orcid.org/0000-0003-1100-6494"], "http://rdfs.org/ns/void#inDataset": ["http://w3id.org/geo-lod/geo-lod"], "http://w3id.org/geo-lod/hasCertaintyDescription": ["findspot mentioned in a scientific paper"], "http://w3id.org/geo-lod/hasCertaintyLevel": ["http://fuzzy-sl.squirrel.link/ontology/high"], "http://w3id.org/geo-lod/hasLiteratureReference": ["Fedele et al., 2008", "Giaccio et al., 2008"], "http://w3id.org/geo-lod/hasSpatialType": ["http://fuzzy-sl.squirrel.link/ontology/Cave"], "http://www.opengis.net/ont/geosparql#hasGeometry": ["http://w3id.org/geo-lod/ci/cisite_5_geom"], "http://www.w3.org/1999/02/22-rdf-syntax-ns#type": ["http://fuzzy-sl.squirrel.link/ontology/Site", "http://w3id.org/geo-lod/CIFindspot", "http://www.w3.org/ns/prov#Entity", "https://pleiades.stoa.org/places/vocab#Place"], "http://www.w3.org/2000/01/rdf-schema#comment": ["CI findspot related from literature"], "http://www.w3.org/2000/01/rdf-schema#label": ["Castelcivita Cave"], "http://www.w3.org/2004/02/skos/core#closeMatch": ["http://openstreetmap.org/node/337519639", "http://wikidata.org/entity/Q3777120"], "http://www.w3.org/2004/02/skos/core#prefLabel": ["Castelcivita Cave"], "http://www.w3.org/2004/02/skos/core#scopeNote": ["CI findspot related from literature"], "http://www.w3.org/ns/prov#wasAttributedTo": ["http://orcid.org/0000-0002-3246-3531", "https://github.com/Research-Squirrel-Engineers/campanian-ignimbrite-geo/blob/main/py/CI.py"], "http://www.w3.org/ns/prov#wasDerivedFrom": ["https://github.com/Research-Squirrel-Engineers/campanian-ignimbrite-geo"], "http://www.w3.org/ns/prov#wasGeneratedBy": ["http://w3id.org/geo-lod/ci/cisite_5_activity", "http://w3id.org/geo-lod/ci/cisite_5_pyscript"]}, "geometry": {"type": "Point", "coordinates": [15.2092, 40.4956], "crs": "4326"}, "crs": "EPSG:4326"}, {"type": "Feature", "id": "http://w3id.org/geo-lod/ci/cisite_103", "name": "", "dateprops": [], "properties": {"http://purl.org/dc/terms/creator": ["https://orcid.org/0000-0002-3246-3531", "https://orcid.org/0000-0003-1100-6494"], "http://purl.org/dc/terms/license": ["https://creativecommons.org/licenses/by/4.0/"], "http://purl.org/dc/terms/rightsHolder": ["https://orcid.org/0000-0002-3246-3531", "https://orcid.org/0000-0003-1100-6494"], "http://rdfs.org/ns/void#inDataset": ["http://w3id.org/geo-lod/geo-lod"], "http://w3id.org/geo-lod/hasCertaintyDescription": ["findspot mentioned in a scientific paper"], "http://w3id.org/geo-lod/hasCertaintyLevel": ["http://fuzzy-sl.squirrel.link/ontology/medium"], "http://w3id.org/geo-lod/hasLiteratureReference": ["Obreht, I. et al. (2017), Fig. 1", "\u00dajv\u00e1ri, G. Et al. (2016)"], "http://w3id.org/geo-lod/hasSpatialType": ["http://fuzzy-sl.squirrel.link/ontology/UnknownCategory"], "http://www.opengis.net/ont/geosparql#hasGeometry": ["http://w3id.org/geo-lod/ci/cisite_103_geom"], "http://www.w3.org/1999/02/22-rdf-syntax-ns#type": ["http://fuzzy-sl.squirrel.link/ontology/Site", "http://w3id.org/geo-lod/CIFindspot", "http://www.w3.org/ns/prov#Entity", "https://pleiades.stoa.org/places/vocab#Place"], "http://www.w3.org/2000/01/rdf-schema#comment": ["CI findspot related from literature"], "http://www.w3.org/2000/01/rdf-schema#label": ["Dunaszekcs\u0151"], "http://www.w3.org/2004/02/skos/core#closeMatch": ["https://sws.geonames.org/3053454"], "http://www.w3.org/2004/02/skos/core#prefLabel": ["Dunaszekcs\u0151"], "http://www.w3.org/2004/02/skos/core#scopeNote": ["CI findspot related from literature"], "http://www.w3.org/ns/prov#wasAttributedTo": ["http://orcid.org/0000-0002-3246-3531", "https://github.com/Research-Squirrel-Engineers/campanian-ignimbrite-geo/blob/main/py/CI.py"], "http://www.w3.org/ns/prov#wasDerivedFrom": ["https://github.com/Research-Squirrel-Engineers/campanian-ignimbrite-geo"], "http://www.w3.org/ns/prov#wasGeneratedBy": ["http://w3id.org/geo-lod/ci/cisite_103_activity", "http://w3id.org/geo-lod/ci/cisite_103_pyscript"]}, "geometry": {"type": "Point", "coordinates": [18.7587, 46.0874], "crs": "4326"}, "crs": "EPSG:4326"}, {"type": "Feature", "id": "http://w3id.org/geo-lod/ci/cisite_65", "name": "", "dateprops": [], "properties": {"http://purl.org/dc/terms/creator": ["https://orcid.org/0000-0002-3246-3531", "https://orcid.org/0000-0003-1100-6494"], "http://purl.org/dc/terms/license": ["https://creativecommons.org/licenses/by/4.0/"], "http://purl.org/dc/terms/rightsHolder": ["https://orcid.org/0000-0002-3246-3531", "https://orcid.org/0000-0003-1100-6494"], "http://rdfs.org/ns/void#inDataset": ["http://w3id.org/geo-lod/geo-lod"], "http://w3id.org/geo-lod/hasCertaintyDescription": ["findspot mentioned in a scientific paper"], "http://w3id.org/geo-lod/hasCertaintyLevel": ["http://fuzzy-sl.squirrel.link/ontology/high"], "http://w3id.org/geo-lod/hasLiteratureReference": ["Lowe et al., 2012"], "http://w3id.org/geo-lod/hasSpatialType": ["http://fuzzy-sl.squirrel.link/ontology/ArchaeologicalSite", "http://fuzzy-sl.squirrel.link/ontology/Cave"], "http://www.opengis.net/ont/geosparql#hasGeometry": ["http://w3id.org/geo-lod/ci/cisite_65_geom"], "http://www.w3.org/1999/02/22-rdf-syntax-ns#type": ["http://fuzzy-sl.squirrel.link/ontology/Site", "http://w3id.org/geo-lod/CIArchaeologicalSite", "http://w3id.org/geo-lod/CIFindspot", "http://www.cidoc-crm.org/extensions/crmarchaeo/A2_Stratigraphic_Volume_Unit", "http://www.w3.org/ns/prov#Entity", "https://pleiades.stoa.org/places/vocab#Place"], "http://www.w3.org/2000/01/rdf-schema#comment": ["CI findspot related from literature"], "http://www.w3.org/2000/01/rdf-schema#label": ["Haua-Fteah (Libya)"], "http://www.w3.org/2004/02/skos/core#closeMatch": ["http://openstreetmap.org/node/7778324735", "http://wikidata.org/entity/Q25226810"], "http://www.w3.org/2004/02/skos/core#prefLabel": ["Haua-Fteah (Libya)"], "http://www.w3.org/2004/02/skos/core#scopeNote": ["CI findspot related from literature"], "http://www.w3.org/ns/prov#wasAttributedTo": ["http://orcid.org/0000-0002-3246-3531", "https://github.com/Research-Squirrel-Engineers/campanian-ignimbrite-geo/blob/main/py/CI.py"], "http://www.w3.org/ns/prov#wasDerivedFrom": ["https://github.com/Research-Squirrel-Engineers/campanian-ignimbrite-geo"], "http://www.w3.org/ns/prov#wasGeneratedBy": ["http://w3id.org/geo-lod/ci/cisite_65_activity", "http://w3id.org/geo-lod/ci/cisite_65_pyscript"]}, "geometry": {"type": "Point", "coordinates": [22.0516, 32.9002], "crs": "4326"}, "crs": "EPSG:4326"}, {"type": "Feature", "id": "http://w3id.org/geo-lod/ci/cisite_45", "name": "", "dateprops": [], "properties": {"http://purl.org/dc/terms/creator": ["https://orcid.org/0000-0002-3246-3531", "https://orcid.org/0000-0003-1100-6494"], "http://purl.org/dc/terms/license": ["https://creativecommons.org/licenses/by/4.0/"], "http://purl.org/dc/terms/rightsHolder": ["https://orcid.org/0000-0002-3246-3531", "https://orcid.org/0000-0003-1100-6494"], "http://rdfs.org/ns/void#inDataset": ["http://w3id.org/geo-lod/geo-lod"], "http://w3id.org/geo-lod/hasCertaintyDescription": ["findspot mentioned in a scientific paper and found on OpenStreetMap"], "http://w3id.org/geo-lod/hasCertaintyLevel": ["http://fuzzy-sl.squirrel.link/ontology/high"], "http://w3id.org/geo-lod/hasLiteratureReference": ["Fedele et al., 2003"], "http://w3id.org/geo-lod/hasSpatialType": ["http://fuzzy-sl.squirrel.link/ontology/ArchaeologicalSite", "http://fuzzy-sl.squirrel.link/ontology/Cave"], "http://www.opengis.net/ont/geosparql#hasGeometry": ["http://w3id.org/geo-lod/ci/cisite_45_geom"], "http://www.w3.org/1999/02/22-rdf-syntax-ns#type": ["http://fuzzy-sl.squirrel.link/ontology/Site", "http://w3id.org/geo-lod/CIArchaeologicalSite", "http://w3id.org/geo-lod/CIFindspot", "http://www.cidoc-crm.org/extensions/crmarchaeo/A2_Stratigraphic_Volume_Unit", "http://www.w3.org/ns/prov#Entity", "https://pleiades.stoa.org/places/vocab#Place"], "http://www.w3.org/2000/01/rdf-schema#comment": ["CI findspot related from literature"], "http://www.w3.org/2000/01/rdf-schema#label": ["Franchthi Cave (Greece)"], "http://www.w3.org/2004/02/skos/core#closeMatch": ["http://openstreetmap.org/node/1221172611", "http://wikidata.org/entity/Q1441331"], "http://www.w3.org/2004/02/skos/core#prefLabel": ["Franchthi Cave (Greece)"], "http://www.w3.org/2004/02/skos/core#scopeNote": ["CI findspot related from literature"], "http://www.w3.org/ns/prov#wasAttributedTo": ["http://orcid.org/0000-0002-3246-3531", "https://github.com/Research-Squirrel-Engineers/campanian-ignimbrite-geo/blob/main/py/CI.py"], "http://www.w3.org/ns/prov#wasDerivedFrom": ["https://github.com/Research-Squirrel-Engineers/campanian-ignimbrite-geo"], "http://www.w3.org/ns/prov#wasGeneratedBy": ["http://w3id.org/geo-lod/ci/cisite_45_activity", "http://w3id.org/geo-lod/ci/cisite_45_pyscript"]}, "geometry": {"type": "Point", "coordinates": [23.1311, 37.4226], "crs": "4326"}, "crs": "EPSG:4326"}, {"type": "Feature", "id": "http://w3id.org/geo-lod/ci/cisite_7", "name": "", "dateprops": [], "properties": {"http://purl.org/dc/terms/creator": ["https://orcid.org/0000-0002-3246-3531", "https://orcid.org/0000-0003-1100-6494"], "http://purl.org/dc/terms/license": ["https://creativecommons.org/licenses/by/4.0/"], "http://purl.org/dc/terms/rightsHolder": ["https://orcid.org/0000-0002-3246-3531", "https://orcid.org/0000-0003-1100-6494"], "http://rdfs.org/ns/void#inDataset": ["http://w3id.org/geo-lod/geo-lod"], "http://w3id.org/geo-lod/hasCertaintyDescription": ["findspot mentioned in a scientific paper"], "http://w3id.org/geo-lod/hasCertaintyLevel": ["http://fuzzy-sl.squirrel.link/ontology/medium"], "http://w3id.org/geo-lod/hasLiteratureReference": ["Pappalardo et al., 1999"], "http://w3id.org/geo-lod/hasSpatialType": ["http://fuzzy-sl.squirrel.link/ontology/UnknownCategory"], "http://www.opengis.net/ont/geosparql#hasGeometry": ["http://w3id.org/geo-lod/ci/cisite_7_geom"], "http://www.w3.org/1999/02/22-rdf-syntax-ns#type": ["http://fuzzy-sl.squirrel.link/ontology/Site", "http://w3id.org/geo-lod/CIFindspot", "http://www.w3.org/ns/prov#Entity", "https://pleiades.stoa.org/places/vocab#Place"], "http://www.w3.org/2000/01/rdf-schema#comment": ["CI findspot related from literature"], "http://www.w3.org/2000/01/rdf-schema#label": ["Cuma"], "http://www.w3.org/2004/02/skos/core#closeMatch": ["http://wikidata.org/entity/Q243456"], "http://www.w3.org/2004/02/skos/core#prefLabel": ["Cuma"], "http://www.w3.org/2004/02/skos/core#scopeNote": ["CI findspot related from literature"], "http://www.w3.org/ns/prov#wasAttributedTo": ["http://orcid.org/0000-0002-3246-3531", "https://github.com/Research-Squirrel-Engineers/campanian-ignimbrite-geo/blob/main/py/CI.py"], "http://www.w3.org/ns/prov#wasDerivedFrom": ["https://github.com/Research-Squirrel-Engineers/campanian-ignimbrite-geo"], "http://www.w3.org/ns/prov#wasGeneratedBy": ["http://w3id.org/geo-lod/ci/cisite_7_activity", "http://w3id.org/geo-lod/ci/cisite_7_pyscript"]}, "geometry": {"type": "Point", "coordinates": [14.056, 40.8381], "crs": "4326"}, "crs": "EPSG:4326"}, {"type": "Feature", "id": "http://w3id.org/geo-lod/ci/cisite_44", "name": "", "dateprops": [], "properties": {"http://purl.org/dc/terms/creator": ["https://orcid.org/0000-0002-3246-3531", "https://orcid.org/0000-0003-1100-6494"], "http://purl.org/dc/terms/license": ["https://creativecommons.org/licenses/by/4.0/"], "http://purl.org/dc/terms/rightsHolder": ["https://orcid.org/0000-0002-3246-3531", "https://orcid.org/0000-0003-1100-6494"], "http://rdfs.org/ns/void#inDataset": ["http://w3id.org/geo-lod/geo-lod"], "http://w3id.org/geo-lod/hasCertaintyDescription": ["findspot mentioned in a scientific paper"], "http://w3id.org/geo-lod/hasCertaintyLevel": ["http://fuzzy-sl.squirrel.link/ontology/high"], "http://w3id.org/geo-lod/hasLiteratureReference": ["Tsanova et al., 2021"], "http://w3id.org/geo-lod/hasSpatialType": ["http://fuzzy-sl.squirrel.link/ontology/ArchaeologicalSite", "http://fuzzy-sl.squirrel.link/ontology/Cave"], "http://www.opengis.net/ont/geosparql#hasGeometry": ["http://w3id.org/geo-lod/ci/cisite_44_geom"], "http://www.w3.org/1999/02/22-rdf-syntax-ns#type": ["http://fuzzy-sl.squirrel.link/ontology/Site", "http://w3id.org/geo-lod/CIArchaeologicalSite", "http://w3id.org/geo-lod/CIFindspot", "http://www.cidoc-crm.org/extensions/crmarchaeo/A2_Stratigraphic_Volume_Unit", "http://www.w3.org/ns/prov#Entity", "https://pleiades.stoa.org/places/vocab#Place"], "http://www.w3.org/2000/01/rdf-schema#comment": ["CI findspot related from literature"], "http://www.w3.org/2000/01/rdf-schema#label": ["Toplitsa Cave (Bulgaria)"], "http://www.w3.org/2004/02/skos/core#closeMatch": ["http://openstreetmap.org/node/11109379095", "http://wikidata.org/entity/Q61788595"], "http://www.w3.org/2004/02/skos/core#prefLabel": ["Toplitsa Cave (Bulgaria)"], "http://www.w3.org/2004/02/skos/core#scopeNote": ["CI findspot related from literature"], "http://www.w3.org/ns/prov#wasAttributedTo": ["http://orcid.org/0000-0002-3246-3531", "https://github.com/Research-Squirrel-Engineers/campanian-ignimbrite-geo/blob/main/py/CI.py"], "http://www.w3.org/ns/prov#wasDerivedFrom": ["https://github.com/Research-Squirrel-Engineers/campanian-ignimbrite-geo"], "http://www.w3.org/ns/prov#wasGeneratedBy": ["http://w3id.org/geo-lod/ci/cisite_44_activity", "http://w3id.org/geo-lod/ci/cisite_44_pyscript"]}, "geometry": {"type": "Point", "coordinates": [24.0053, 43.1907], "crs": "4326"}, "crs": "EPSG:4326"}], "numberMatched": 18, "numberReturned": 18, "bbox": [14.0366, 32.9002, 27.9347, 46.0874], "crs": "http://www.opengis.net/def/crs/EPSG/0/EPSG:4326"}