{"type": "FeatureCollection", "id": "http://wikidata.org/entity/Q2641546", "name": "Q2641546", "features": [{"type": "Feature", "id": "http://w3id.org/geo-lod/ci/cisite_64", "name": "", "dateprops": [], "properties": {"http://fuzzy-sl.squirrel.link/ontology/dubiousMatch": ["http://wikidata.org/entity/Q2641546"], "http://purl.org/dc/terms/creator": ["https://orcid.org/0000-0002-3246-3531", "https://orcid.org/0000-0003-1100-6494"], "http://purl.org/dc/terms/license": ["https://creativecommons.org/licenses/by/4.0/"], "http://purl.org/dc/terms/rightsHolder": ["https://orcid.org/0000-0002-3246-3531", "https://orcid.org/0000-0003-1100-6494"], "http://rdfs.org/ns/void#inDataset": ["http://w3id.org/geo-lod/geo-lod"], "http://w3id.org/geo-lod/hasCertaintyDescription": ["findspot mentioned in a scientific paper"], "http://w3id.org/geo-lod/hasCertaintyLevel": ["http://fuzzy-sl.squirrel.link/ontology/low"], "http://w3id.org/geo-lod/hasLiteratureReference": ["Fitzsimmons et al., 2013"], "http://w3id.org/geo-lod/hasSpatialType": ["http://fuzzy-sl.squirrel.link/ontology/ModernRegion"], "http://www.opengis.net/ont/geosparql#hasGeometry": ["http://w3id.org/geo-lod/ci/cisite_64_geom"], "http://www.w3.org/1999/02/22-rdf-syntax-ns#type": ["http://fuzzy-sl.squirrel.link/ontology/Site", "http://w3id.org/geo-lod/CIFindspot", "http://www.w3.org/ns/prov#Entity", "https://pleiades.stoa.org/places/vocab#Place"], "http://www.w3.org/2000/01/rdf-schema#comment": ["CI findspot related from literature"], "http://www.w3.org/2000/01/rdf-schema#label": ["Southern Ukraine"], "http://www.w3.org/2004/02/skos/core#prefLabel": ["Southern Ukraine"], "http://www.w3.org/2004/02/skos/core#scopeNote": ["CI findspot related from literature"], "http://www.w3.org/ns/prov#wasAttributedTo": ["http://orcid.org/0009-0008-2877-3204", "https://github.com/Research-Squirrel-Engineers/campanian-ignimbrite-geo/blob/main/py/CI.py"], "http://www.w3.org/ns/prov#wasDerivedFrom": ["https://github.com/Research-Squirrel-Engineers/campanian-ignimbrite-geo"], "http://www.w3.org/ns/prov#wasGeneratedBy": ["http://w3id.org/geo-lod/ci/cisite_64_pyscript"]}, "geometry": {"type": "Point", "coordinates": [31.8, 47.43], "crs": "4326"}, "crs": "EPSG:4326"}], "numberMatched": 1, "numberReturned": 1, "bbox": [31.8, 47.43, 31.8, 47.43], "crs": "http://www.opengis.net/def/crs/EPSG/0/EPSG:4326"}