{"type": "FeatureCollection", "id": "http://fuzzy-sl.squirrel.link/ontology/high", "name": "high", "features": [{"type": "Feature", "id": "http://w3id.org/geo-lod/ci/cisite_51", "name": "", "dateprops": [], "properties": {"http://purl.org/dc/terms/creator": ["https://orcid.org/0000-0002-3246-3531", "https://orcid.org/0000-0003-1100-6494"], "http://purl.org/dc/terms/license": ["https://creativecommons.org/licenses/by/4.0/"], "http://purl.org/dc/terms/rightsHolder": ["https://orcid.org/0000-0002-3246-3531", "https://orcid.org/0000-0003-1100-6494"], "http://rdfs.org/ns/void#inDataset": ["http://w3id.org/geo-lod/geo-lod"], "http://w3id.org/geo-lod/hasCertaintyDescription": ["findspot mentioned in a scientific paper and found on OpenStreetMap"], "http://w3id.org/geo-lod/hasCertaintyLevel": ["http://fuzzy-sl.squirrel.link/ontology/high"], "http://w3id.org/geo-lod/hasLiteratureReference": ["Morley & Woodward, 2011"], "http://w3id.org/geo-lod/hasSpatialType": ["http://fuzzy-sl.squirrel.link/ontology/ArchaeologicalSite", "http://fuzzy-sl.squirrel.link/ontology/Cave"], "http://www.opengis.net/ont/geosparql#hasGeometry": ["http://w3id.org/geo-lod/ci/cisite_51_geom"], "http://www.w3.org/1999/02/22-rdf-syntax-ns#type": ["http://fuzzy-sl.squirrel.link/ontology/Site", "http://w3id.org/geo-lod/CIArchaeologicalSite", "http://w3id.org/geo-lod/CIFindspot", "http://www.cidoc-crm.org/extensions/crmarchaeo/A2_Stratigraphic_Volume_Unit", "http://www.w3.org/ns/prov#Entity", "https://pleiades.stoa.org/places/vocab#Place"], "http://www.w3.org/2000/01/rdf-schema#comment": ["CI findspot related from literature"], "http://www.w3.org/2000/01/rdf-schema#label": ["Crvena Stiljena (Montenegro)"], "http://www.w3.org/2004/02/skos/core#closeMatch": ["http://openstreetmap.org/node/10879170567", "http://wikidata.org/entity/Q121418883"], "http://www.w3.org/2004/02/skos/core#prefLabel": ["Crvena Stiljena (Montenegro)"], "http://www.w3.org/2004/02/skos/core#scopeNote": ["CI findspot related from literature"], "http://www.w3.org/ns/prov#wasAttributedTo": ["http://orcid.org/0009-0008-2877-3204", "https://github.com/Research-Squirrel-Engineers/campanian-ignimbrite-geo/blob/main/py/CI.py"], "http://www.w3.org/ns/prov#wasDerivedFrom": ["https://github.com/Research-Squirrel-Engineers/campanian-ignimbrite-geo"], "http://www.w3.org/ns/prov#wasGeneratedBy": ["http://w3id.org/geo-lod/ci/cisite_51_activity", "http://w3id.org/geo-lod/ci/cisite_51_pyscript"]}, "geometry": {"type": "Point", "coordinates": [18.4815, 42.779], "crs": "4326"}, "crs": "EPSG:4326"}, {"type": "Feature", "id": "http://w3id.org/geo-lod/ci/cisite_43_geom", "name": "", "dateprops": [], "properties": {"http://rdfs.org/ns/void#inDataset": ["http://w3id.org/geo-lod/geo-lod"], "http://w3id.org/geo-lod/hasCertaintyDescription": ["findspot mentioned in a scientific paper"], "http://w3id.org/geo-lod/hasCertaintyLevel": ["http://fuzzy-sl.squirrel.link/ontology/high"], "http://www.opengis.net/ont/geosparql#asWKT": ["<http://www.opengis.net/def/crs/EPSG/0/4326> POINT(23.3848 43.0892)"], "http://www.w3.org/1999/02/22-rdf-syntax-ns#type": ["http://www.ics.forth.gr/isl/CRMgeo/SP6_Declarative_Place", "http://www.opengis.net/ont/sf#Point"]}, "geometry": {"type": "Point", "coordinates": [23.3848, 43.0892], "crs": "4326"}, "crs": "EPSG:4326"}, {"type": "Feature", "id": "http://w3id.org/geo-lod/ci/cisite_62_geom", "name": "", "dateprops": [], "properties": {"http://rdfs.org/ns/void#inDataset": ["http://w3id.org/geo-lod/geo-lod"], "http://w3id.org/geo-lod/hasCertaintyDescription": ["findspot mentioned in a scientific paper"], "http://w3id.org/geo-lod/hasCertaintyLevel": ["http://fuzzy-sl.squirrel.link/ontology/high"], "http://www.opengis.net/ont/geosparql#asWKT": ["<http://www.opengis.net/def/crs/EPSG/0/4326> POINT(22.3094 44.6568)"], "http://www.w3.org/1999/02/22-rdf-syntax-ns#type": ["http://www.ics.forth.gr/isl/CRMgeo/SP6_Declarative_Place", "http://www.opengis.net/ont/sf#Point"]}, "geometry": {"type": "Point", "coordinates": [22.3094, 44.6568], "crs": "4326"}, "crs": "EPSG:4326"}, {"type": "Feature", "id": "http://w3id.org/geo-lod/ci/cisite_51_geom", "name": "", "dateprops": [], "properties": {"http://rdfs.org/ns/void#inDataset": ["http://w3id.org/geo-lod/geo-lod"], "http://w3id.org/geo-lod/hasCertaintyDescription": ["findspot mentioned in a scientific paper and found on OpenStreetMap"], "http://w3id.org/geo-lod/hasCertaintyLevel": ["http://fuzzy-sl.squirrel.link/ontology/high"], "http://www.opengis.net/ont/geosparql#asWKT": ["<http://www.opengis.net/def/crs/EPSG/0/4326> POINT(18.4815 42.7790)"], "http://www.w3.org/1999/02/22-rdf-syntax-ns#type": ["http://www.ics.forth.gr/isl/CRMgeo/SP6_Declarative_Place", "http://www.opengis.net/ont/sf#Point"]}, "geometry": {"type": "Point", "coordinates": [18.4815, 42.779], "crs": "4326"}, "crs": "EPSG:4326"}, {"type": "Feature", "id": "http://w3id.org/geo-lod/ci/cisite_203", "name": "", "dateprops": [], "properties": {"http://purl.org/dc/terms/creator": ["https://orcid.org/0000-0002-3246-3531", "https://orcid.org/0000-0003-1100-6494"], "http://purl.org/dc/terms/license": ["https://creativecommons.org/licenses/by/4.0/"], "http://purl.org/dc/terms/rightsHolder": ["https://orcid.org/0000-0002-3246-3531", "https://orcid.org/0000-0003-1100-6494"], "http://rdfs.org/ns/void#inDataset": ["http://w3id.org/geo-lod/geo-lod"], "http://w3id.org/geo-lod/hasCertaintyDescription": ["findspot mentioned in a scientific paper"], "http://w3id.org/geo-lod/hasCertaintyLevel": ["http://fuzzy-sl.squirrel.link/ontology/high"], "http://w3id.org/geo-lod/hasLiteratureReference": ["Schenk et al. (2024)"], "http://w3id.org/geo-lod/hasSpatialType": ["http://fuzzy-sl.squirrel.link/ontology/Maar"], "http://www.opengis.net/ont/geosparql#hasGeometry": ["http://w3id.org/geo-lod/ci/cisite_203_geom"], "http://www.w3.org/1999/02/22-rdf-syntax-ns#type": ["http://fuzzy-sl.squirrel.link/ontology/Site", "http://w3id.org/geo-lod/CIFindspot", "http://www.w3.org/ns/prov#Entity", "https://pleiades.stoa.org/places/vocab#Place"], "http://www.w3.org/2000/01/rdf-schema#comment": ["CI findspot related from literature"], "http://www.w3.org/2000/01/rdf-schema#label": ["Dehner Maar DE3"], "http://www.w3.org/2004/02/skos/core#closeMatch": ["http://wikidata.org/entity/Q134466523"], "http://www.w3.org/2004/02/skos/core#prefLabel": ["Dehner Maar DE3"], "http://www.w3.org/2004/02/skos/core#scopeNote": ["CI findspot related from literature"], "http://www.w3.org/ns/prov#wasAttributedTo": ["http://orcid.org/0009-0008-2877-3204", "https://github.com/Research-Squirrel-Engineers/campanian-ignimbrite-geo/blob/main/py/CI.py"], "http://www.w3.org/ns/prov#wasDerivedFrom": ["https://github.com/Research-Squirrel-Engineers/campanian-ignimbrite-geo"], "http://www.w3.org/ns/prov#wasGeneratedBy": ["http://w3id.org/geo-lod/ci/cisite_203_activity", "http://w3id.org/geo-lod/ci/cisite_203_pyscript"]}, "geometry": {"type": "Point", "coordinates": [6.5066, 50.2928], "crs": "4326"}, "crs": "EPSG:4326"}, {"type": "Feature", "id": "http://w3id.org/geo-lod/ci/cisite_45_geom", "name": "", "dateprops": [], "properties": {"http://rdfs.org/ns/void#inDataset": ["http://w3id.org/geo-lod/geo-lod"], "http://w3id.org/geo-lod/hasCertaintyDescription": ["findspot mentioned in a scientific paper and found on OpenStreetMap"], "http://w3id.org/geo-lod/hasCertaintyLevel": ["http://fuzzy-sl.squirrel.link/ontology/high"], "http://www.opengis.net/ont/geosparql#asWKT": ["<http://www.opengis.net/def/crs/EPSG/0/4326> POINT(23.1311 37.4226)"], "http://www.w3.org/1999/02/22-rdf-syntax-ns#type": ["http://www.ics.forth.gr/isl/CRMgeo/SP6_Declarative_Place", "http://www.opengis.net/ont/sf#Point"]}, "geometry": {"type": "Point", "coordinates": [23.1311, 37.4226], "crs": "4326"}, "crs": "EPSG:4326"}, {"type": "Feature", "id": "http://w3id.org/geo-lod/ci/cisite_45", "name": "", "dateprops": [], "properties": {"http://purl.org/dc/terms/creator": ["https://orcid.org/0000-0002-3246-3531", "https://orcid.org/0000-0003-1100-6494"], "http://purl.org/dc/terms/license": ["https://creativecommons.org/licenses/by/4.0/"], "http://purl.org/dc/terms/rightsHolder": ["https://orcid.org/0000-0002-3246-3531", "https://orcid.org/0000-0003-1100-6494"], "http://rdfs.org/ns/void#inDataset": ["http://w3id.org/geo-lod/geo-lod"], "http://w3id.org/geo-lod/hasCertaintyDescription": ["findspot mentioned in a scientific paper and found on OpenStreetMap"], "http://w3id.org/geo-lod/hasCertaintyLevel": ["http://fuzzy-sl.squirrel.link/ontology/high"], "http://w3id.org/geo-lod/hasLiteratureReference": ["Fedele et al., 2003"], "http://w3id.org/geo-lod/hasSpatialType": ["http://fuzzy-sl.squirrel.link/ontology/ArchaeologicalSite", "http://fuzzy-sl.squirrel.link/ontology/Cave"], "http://www.opengis.net/ont/geosparql#hasGeometry": ["http://w3id.org/geo-lod/ci/cisite_45_geom"], "http://www.w3.org/1999/02/22-rdf-syntax-ns#type": ["http://fuzzy-sl.squirrel.link/ontology/Site", "http://w3id.org/geo-lod/CIArchaeologicalSite", "http://w3id.org/geo-lod/CIFindspot", "http://www.cidoc-crm.org/extensions/crmarchaeo/A2_Stratigraphic_Volume_Unit", "http://www.w3.org/ns/prov#Entity", "https://pleiades.stoa.org/places/vocab#Place"], "http://www.w3.org/2000/01/rdf-schema#comment": ["CI findspot related from literature"], "http://www.w3.org/2000/01/rdf-schema#label": ["Franchthi Cave (Greece)"], "http://www.w3.org/2004/02/skos/core#closeMatch": ["http://openstreetmap.org/node/1221172611", "http://wikidata.org/entity/Q1441331"], "http://www.w3.org/2004/02/skos/core#prefLabel": ["Franchthi Cave (Greece)"], "http://www.w3.org/2004/02/skos/core#scopeNote": ["CI findspot related from literature"], "http://www.w3.org/ns/prov#wasAttributedTo": ["http://orcid.org/0000-0002-3246-3531", "https://github.com/Research-Squirrel-Engineers/campanian-ignimbrite-geo/blob/main/py/CI.py"], "http://www.w3.org/ns/prov#wasDerivedFrom": ["https://github.com/Research-Squirrel-Engineers/campanian-ignimbrite-geo"], "http://www.w3.org/ns/prov#wasGeneratedBy": ["http://w3id.org/geo-lod/ci/cisite_45_activity", "http://w3id.org/geo-lod/ci/cisite_45_pyscript"]}, "geometry": {"type": "Point", "coordinates": [23.1311, 37.4226], "crs": "4326"}, "crs": "EPSG:4326"}, {"type": "Feature", "id": "http://w3id.org/geo-lod/ci/cisite_62", "name": "", "dateprops": [], "properties": {"http://purl.org/dc/terms/creator": ["https://orcid.org/0000-0002-3246-3531", "https://orcid.org/0000-0003-1100-6494"], "http://purl.org/dc/terms/license": ["https://creativecommons.org/licenses/by/4.0/"], "http://purl.org/dc/terms/rightsHolder": ["https://orcid.org/0000-0002-3246-3531", "https://orcid.org/0000-0003-1100-6494"], "http://rdfs.org/ns/void#inDataset": ["http://w3id.org/geo-lod/geo-lod"], "http://w3id.org/geo-lod/hasCertaintyDescription": ["findspot mentioned in a scientific paper"], "http://w3id.org/geo-lod/hasCertaintyLevel": ["http://fuzzy-sl.squirrel.link/ontology/high"], "http://w3id.org/geo-lod/hasLiteratureReference": ["Boric et al., 2012", "Lowe et al., 2012"], "http://w3id.org/geo-lod/hasSpatialType": ["http://fuzzy-sl.squirrel.link/ontology/ArchaeologicalSite"], "http://www.opengis.net/ont/geosparql#hasGeometry": ["http://w3id.org/geo-lod/ci/cisite_62_geom"], "http://www.w3.org/1999/02/22-rdf-syntax-ns#type": ["http://fuzzy-sl.squirrel.link/ontology/Site", "http://w3id.org/geo-lod/CIArchaeologicalSite", "http://w3id.org/geo-lod/CIFindspot", "http://www.cidoc-crm.org/extensions/crmarchaeo/A2_Stratigraphic_Volume_Unit", "http://www.w3.org/ns/prov#Entity", "https://pleiades.stoa.org/places/vocab#Place"], "http://www.w3.org/2000/01/rdf-schema#comment": ["CI findspot related from literature"], "http://www.w3.org/2000/01/rdf-schema#label": ["Tabula Traiana (Serbia)"], "http://www.w3.org/2004/02/skos/core#closeMatch": ["http://wikidata.org/entity/Q2091689", "https://www.openstreetmap.org/node/1918839400"], "http://www.w3.org/2004/02/skos/core#prefLabel": ["Tabula Traiana (Serbia)"], "http://www.w3.org/2004/02/skos/core#scopeNote": ["CI findspot related from literature"], "http://www.w3.org/ns/prov#wasAttributedTo": ["http://orcid.org/0009-0008-2877-3204", "https://github.com/Research-Squirrel-Engineers/campanian-ignimbrite-geo/blob/main/py/CI.py"], "http://www.w3.org/ns/prov#wasDerivedFrom": ["https://github.com/Research-Squirrel-Engineers/campanian-ignimbrite-geo"], "http://www.w3.org/ns/prov#wasGeneratedBy": ["http://w3id.org/geo-lod/ci/cisite_62_activity", "http://w3id.org/geo-lod/ci/cisite_62_pyscript"]}, "geometry": {"type": "Point", "coordinates": [22.3094, 44.6568], "crs": "4326"}, "crs": "EPSG:4326"}, {"type": "Feature", "id": "http://w3id.org/geo-lod/ci/cisite_202_geom", "name": "", "dateprops": [], "properties": {"http://rdfs.org/ns/void#inDataset": ["http://w3id.org/geo-lod/geo-lod"], "http://w3id.org/geo-lod/hasCertaintyDescription": ["findspot mentioned in a scientific paper"], "http://w3id.org/geo-lod/hasCertaintyLevel": ["http://fuzzy-sl.squirrel.link/ontology/high"], "http://www.opengis.net/ont/geosparql#asWKT": ["<http://www.opengis.net/def/crs/EPSG/0/4326> POINT(6.5949 50.2821)"], "http://www.w3.org/1999/02/22-rdf-syntax-ns#type": ["http://www.ics.forth.gr/isl/CRMgeo/SP6_Declarative_Place", "http://www.opengis.net/ont/sf#Point"]}, "geometry": {"type": "Point", "coordinates": [6.5949, 50.2821], "crs": "4326"}, "crs": "EPSG:4326"}, {"type": "Feature", "id": "http://w3id.org/geo-lod/ci/cisite_41", "name": "", "dateprops": [], "properties": {"http://purl.org/dc/terms/creator": ["https://orcid.org/0000-0002-3246-3531", "https://orcid.org/0000-0003-1100-6494"], "http://purl.org/dc/terms/license": ["https://creativecommons.org/licenses/by/4.0/"], "http://purl.org/dc/terms/rightsHolder": ["https://orcid.org/0000-0002-3246-3531", "https://orcid.org/0000-0003-1100-6494"], "http://rdfs.org/ns/void#inDataset": ["http://w3id.org/geo-lod/geo-lod"], "http://w3id.org/geo-lod/hasCertaintyDescription": ["findspot mentioned in a scientific paper"], "http://w3id.org/geo-lod/hasCertaintyLevel": ["http://fuzzy-sl.squirrel.link/ontology/high"], "http://w3id.org/geo-lod/hasLiteratureReference": ["Leicher et al., 2019, 2016"], "http://w3id.org/geo-lod/hasSpatialType": ["http://fuzzy-sl.squirrel.link/ontology/Lake"], "http://www.opengis.net/ont/geosparql#hasGeometry": ["http://w3id.org/geo-lod/ci/cisite_41_geom"], "http://www.w3.org/1999/02/22-rdf-syntax-ns#type": ["http://fuzzy-sl.squirrel.link/ontology/Site", "http://w3id.org/geo-lod/CIFindspot", "http://www.w3.org/ns/prov#Entity", "https://pleiades.stoa.org/places/vocab#Place"], "http://www.w3.org/2000/01/rdf-schema#comment": ["CI findspot related from literature"], "http://www.w3.org/2000/01/rdf-schema#label": ["Lake Ohrid (Albania)"], "http://www.w3.org/2004/02/skos/core#closeMatch": ["http://wikidata.org/entity/Q156258", "https://www.openstreetmap.org/relation/2905270"], "http://www.w3.org/2004/02/skos/core#prefLabel": ["Lake Ohrid (Albania)"], "http://www.w3.org/2004/02/skos/core#scopeNote": ["CI findspot related from literature"], "http://www.w3.org/ns/prov#wasAttributedTo": ["http://orcid.org/0009-0008-2877-3204", "https://github.com/Research-Squirrel-Engineers/campanian-ignimbrite-geo/blob/main/py/CI.py"], "http://www.w3.org/ns/prov#wasDerivedFrom": ["https://github.com/Research-Squirrel-Engineers/campanian-ignimbrite-geo"], "http://www.w3.org/ns/prov#wasGeneratedBy": ["http://w3id.org/geo-lod/ci/cisite_41_activity", "http://w3id.org/geo-lod/ci/cisite_41_pyscript"]}, "geometry": {"type": "Point", "coordinates": [20.6749, 40.9874], "crs": "4326"}, "crs": "EPSG:4326"}, {"type": "Feature", "id": "http://w3id.org/geo-lod/ci/cisite_203_geom", "name": "", "dateprops": [], "properties": {"http://rdfs.org/ns/void#inDataset": ["http://w3id.org/geo-lod/geo-lod"], "http://w3id.org/geo-lod/hasCertaintyDescription": ["findspot mentioned in a scientific paper"], "http://w3id.org/geo-lod/hasCertaintyLevel": ["http://fuzzy-sl.squirrel.link/ontology/high"], "http://www.opengis.net/ont/geosparql#asWKT": ["<http://www.opengis.net/def/crs/EPSG/0/4326> POINT(6.5066 50.2928)"], "http://www.w3.org/1999/02/22-rdf-syntax-ns#type": ["http://www.ics.forth.gr/isl/CRMgeo/SP6_Declarative_Place", "http://www.opengis.net/ont/sf#Point"]}, "geometry": {"type": "Point", "coordinates": [6.5066, 50.2928], "crs": "4326"}, "crs": "EPSG:4326"}, {"type": "Feature", "id": "http://w3id.org/geo-lod/ci/cisite_42", "name": "", "dateprops": [], "properties": {"http://purl.org/dc/terms/creator": ["https://orcid.org/0000-0002-3246-3531", "https://orcid.org/0000-0003-1100-6494"], "http://purl.org/dc/terms/license": ["https://creativecommons.org/licenses/by/4.0/"], "http://purl.org/dc/terms/rightsHolder": ["https://orcid.org/0000-0002-3246-3531", "https://orcid.org/0000-0003-1100-6494"], "http://rdfs.org/ns/void#inDataset": ["http://w3id.org/geo-lod/geo-lod"], "http://w3id.org/geo-lod/hasCertaintyDescription": ["findspot mentioned in a scientific paper"], "http://w3id.org/geo-lod/hasCertaintyLevel": ["http://fuzzy-sl.squirrel.link/ontology/high"], "http://w3id.org/geo-lod/hasLiteratureReference": ["Lowe et al., 2012"], "http://w3id.org/geo-lod/hasSpatialType": ["http://fuzzy-sl.squirrel.link/ontology/Cave"], "http://www.opengis.net/ont/geosparql#hasGeometry": ["http://w3id.org/geo-lod/ci/cisite_42_geom"], "http://www.w3.org/1999/02/22-rdf-syntax-ns#type": ["http://fuzzy-sl.squirrel.link/ontology/Site", "http://w3id.org/geo-lod/CIFindspot", "http://www.w3.org/ns/prov#Entity", "https://pleiades.stoa.org/places/vocab#Place"], "http://www.w3.org/2000/01/rdf-schema#comment": ["CI findspot related from literature"], "http://www.w3.org/2000/01/rdf-schema#label": ["Kozarnika Cave (Bulgaria)"], "http://www.w3.org/2004/02/skos/core#closeMatch": ["http://openstreetmap.org/node/8814442373", "http://wikidata.org/entity/Q2037533"], "http://www.w3.org/2004/02/skos/core#prefLabel": ["Kozarnika Cave (Bulgaria)"], "http://www.w3.org/2004/02/skos/core#scopeNote": ["CI findspot related from literature"], "http://www.w3.org/ns/prov#wasAttributedTo": ["http://orcid.org/0009-0008-2877-3204", "https://github.com/Research-Squirrel-Engineers/campanian-ignimbrite-geo/blob/main/py/CI.py"], "http://www.w3.org/ns/prov#wasDerivedFrom": ["https://github.com/Research-Squirrel-Engineers/campanian-ignimbrite-geo"], "http://www.w3.org/ns/prov#wasGeneratedBy": ["http://w3id.org/geo-lod/ci/cisite_42_activity", "http://w3id.org/geo-lod/ci/cisite_42_pyscript"]}, "geometry": {"type": "Point", "coordinates": [22.7024, 43.6519], "crs": "4326"}, "crs": "EPSG:4326"}, {"type": "Feature", "id": "http://w3id.org/geo-lod/ci/cisite_201", "name": "", "dateprops": [], "properties": {"http://purl.org/dc/terms/creator": ["https://orcid.org/0000-0002-3246-3531", "https://orcid.org/0000-0003-1100-6494"], "http://purl.org/dc/terms/license": ["https://creativecommons.org/licenses/by/4.0/"], "http://purl.org/dc/terms/rightsHolder": ["https://orcid.org/0000-0002-3246-3531", "https://orcid.org/0000-0003-1100-6494"], "http://rdfs.org/ns/void#inDataset": ["http://w3id.org/geo-lod/geo-lod"], "http://w3id.org/geo-lod/hasCertaintyDescription": ["findspot mentioned in a scientific paper"], "http://w3id.org/geo-lod/hasCertaintyLevel": ["http://fuzzy-sl.squirrel.link/ontology/high"], "http://w3id.org/geo-lod/hasLiteratureReference": ["Schenk et al. (2024)"], "http://w3id.org/geo-lod/hasSpatialType": ["http://fuzzy-sl.squirrel.link/ontology/Maar"], "http://www.opengis.net/ont/geosparql#hasGeometry": ["http://w3id.org/geo-lod/ci/cisite_201_geom"], "http://www.w3.org/1999/02/22-rdf-syntax-ns#type": ["http://fuzzy-sl.squirrel.link/ontology/Site", "http://w3id.org/geo-lod/CIFindspot", "http://www.w3.org/ns/prov#Entity", "https://pleiades.stoa.org/places/vocab#Place"], "http://www.w3.org/2000/01/rdf-schema#comment": ["CI findspot related from literature"], "http://www.w3.org/2000/01/rdf-schema#label": ["Auel Maar AU3"], "http://www.w3.org/2004/02/skos/core#closeMatch": ["http://wikidata.org/entity/Q134466471"], "http://www.w3.org/2004/02/skos/core#prefLabel": ["Auel Maar AU3"], "http://www.w3.org/2004/02/skos/core#scopeNote": ["CI findspot related from literature"], "http://www.w3.org/ns/prov#wasAttributedTo": ["http://orcid.org/0009-0008-2877-3204", "https://github.com/Research-Squirrel-Engineers/campanian-ignimbrite-geo/blob/main/py/CI.py"], "http://www.w3.org/ns/prov#wasDerivedFrom": ["https://github.com/Research-Squirrel-Engineers/campanian-ignimbrite-geo"], "http://www.w3.org/ns/prov#wasGeneratedBy": ["http://w3id.org/geo-lod/ci/cisite_201_activity", "http://w3id.org/geo-lod/ci/cisite_201_pyscript"]}, "geometry": {"type": "Point", "coordinates": [6.5951, 50.2825], "crs": "4326"}, "crs": "EPSG:4326"}, {"type": "Feature", "id": "http://w3id.org/geo-lod/ci/cisite_65", "name": "", "dateprops": [], "properties": {"http://purl.org/dc/terms/creator": ["https://orcid.org/0000-0002-3246-3531", "https://orcid.org/0000-0003-1100-6494"], "http://purl.org/dc/terms/license": ["https://creativecommons.org/licenses/by/4.0/"], "http://purl.org/dc/terms/rightsHolder": ["https://orcid.org/0000-0002-3246-3531", "https://orcid.org/0000-0003-1100-6494"], "http://rdfs.org/ns/void#inDataset": ["http://w3id.org/geo-lod/geo-lod"], "http://w3id.org/geo-lod/hasCertaintyDescription": ["findspot mentioned in a scientific paper"], "http://w3id.org/geo-lod/hasCertaintyLevel": ["http://fuzzy-sl.squirrel.link/ontology/high"], "http://w3id.org/geo-lod/hasLiteratureReference": ["Lowe et al., 2012"], "http://w3id.org/geo-lod/hasSpatialType": ["http://fuzzy-sl.squirrel.link/ontology/ArchaeologicalSite", "http://fuzzy-sl.squirrel.link/ontology/Cave"], "http://www.opengis.net/ont/geosparql#hasGeometry": ["http://w3id.org/geo-lod/ci/cisite_65_geom"], "http://www.w3.org/1999/02/22-rdf-syntax-ns#type": ["http://fuzzy-sl.squirrel.link/ontology/Site", "http://w3id.org/geo-lod/CIArchaeologicalSite", "http://w3id.org/geo-lod/CIFindspot", "http://www.cidoc-crm.org/extensions/crmarchaeo/A2_Stratigraphic_Volume_Unit", "http://www.w3.org/ns/prov#Entity", "https://pleiades.stoa.org/places/vocab#Place"], "http://www.w3.org/2000/01/rdf-schema#comment": ["CI findspot related from literature"], "http://www.w3.org/2000/01/rdf-schema#label": ["Haua-Fteah (Libya)"], "http://www.w3.org/2004/02/skos/core#closeMatch": ["http://openstreetmap.org/node/7778324735", "http://wikidata.org/entity/Q25226810"], "http://www.w3.org/2004/02/skos/core#prefLabel": ["Haua-Fteah (Libya)"], "http://www.w3.org/2004/02/skos/core#scopeNote": ["CI findspot related from literature"], "http://www.w3.org/ns/prov#wasAttributedTo": ["http://orcid.org/0000-0002-3246-3531", "https://github.com/Research-Squirrel-Engineers/campanian-ignimbrite-geo/blob/main/py/CI.py"], "http://www.w3.org/ns/prov#wasDerivedFrom": ["https://github.com/Research-Squirrel-Engineers/campanian-ignimbrite-geo"], "http://www.w3.org/ns/prov#wasGeneratedBy": ["http://w3id.org/geo-lod/ci/cisite_65_activity", "http://w3id.org/geo-lod/ci/cisite_65_pyscript"]}, "geometry": {"type": "Point", "coordinates": [22.0516, 32.9002], "crs": "4326"}, "crs": "EPSG:4326"}, {"type": "Feature", "id": "http://w3id.org/geo-lod/ci/cisite_65_geom", "name": "", "dateprops": [], "properties": {"http://rdfs.org/ns/void#inDataset": ["http://w3id.org/geo-lod/geo-lod"], "http://w3id.org/geo-lod/hasCertaintyDescription": ["findspot mentioned in a scientific paper"], "http://w3id.org/geo-lod/hasCertaintyLevel": ["http://fuzzy-sl.squirrel.link/ontology/high"], "http://www.opengis.net/ont/geosparql#asWKT": ["<http://www.opengis.net/def/crs/EPSG/0/4326> POINT(22.0516 32.9002)"], "http://www.w3.org/1999/02/22-rdf-syntax-ns#type": ["http://www.ics.forth.gr/isl/CRMgeo/SP6_Declarative_Place", "http://www.opengis.net/ont/sf#Point"]}, "geometry": {"type": "Point", "coordinates": [22.0516, 32.9002], "crs": "4326"}, "crs": "EPSG:4326"}, {"type": "Feature", "id": "http://w3id.org/geo-lod/ci/cisite_49_geom", "name": "", "dateprops": [], "properties": {"http://rdfs.org/ns/void#inDataset": ["http://w3id.org/geo-lod/geo-lod"], "http://w3id.org/geo-lod/hasCertaintyDescription": ["findspot mentioned in a scientific paper"], "http://w3id.org/geo-lod/hasCertaintyLevel": ["http://fuzzy-sl.squirrel.link/ontology/high"], "http://www.opengis.net/ont/geosparql#asWKT": ["<http://www.opengis.net/def/crs/EPSG/0/4326> POINT(20.7409 41.0467)"], "http://www.w3.org/1999/02/22-rdf-syntax-ns#type": ["http://www.ics.forth.gr/isl/CRMgeo/SP6_Declarative_Place", "http://www.opengis.net/ont/sf#Point"]}, "geometry": {"type": "Point", "coordinates": [20.7409, 41.0467], "crs": "4326"}, "crs": "EPSG:4326"}, {"type": "Feature", "id": "http://w3id.org/geo-lod/ci/cisite_44", "name": "", "dateprops": [], "properties": {"http://purl.org/dc/terms/creator": ["https://orcid.org/0000-0002-3246-3531", "https://orcid.org/0000-0003-1100-6494"], "http://purl.org/dc/terms/license": ["https://creativecommons.org/licenses/by/4.0/"], "http://purl.org/dc/terms/rightsHolder": ["https://orcid.org/0000-0002-3246-3531", "https://orcid.org/0000-0003-1100-6494"], "http://rdfs.org/ns/void#inDataset": ["http://w3id.org/geo-lod/geo-lod"], "http://w3id.org/geo-lod/hasCertaintyDescription": ["findspot mentioned in a scientific paper"], "http://w3id.org/geo-lod/hasCertaintyLevel": ["http://fuzzy-sl.squirrel.link/ontology/high"], "http://w3id.org/geo-lod/hasLiteratureReference": ["Tsanova et al., 2021"], "http://w3id.org/geo-lod/hasSpatialType": ["http://fuzzy-sl.squirrel.link/ontology/ArchaeologicalSite", "http://fuzzy-sl.squirrel.link/ontology/Cave"], "http://www.opengis.net/ont/geosparql#hasGeometry": ["http://w3id.org/geo-lod/ci/cisite_44_geom"], "http://www.w3.org/1999/02/22-rdf-syntax-ns#type": ["http://fuzzy-sl.squirrel.link/ontology/Site", "http://w3id.org/geo-lod/CIArchaeologicalSite", "http://w3id.org/geo-lod/CIFindspot", "http://www.cidoc-crm.org/extensions/crmarchaeo/A2_Stratigraphic_Volume_Unit", "http://www.w3.org/ns/prov#Entity", "https://pleiades.stoa.org/places/vocab#Place"], "http://www.w3.org/2000/01/rdf-schema#comment": ["CI findspot related from literature"], "http://www.w3.org/2000/01/rdf-schema#label": ["Toplitsa Cave (Bulgaria)"], "http://www.w3.org/2004/02/skos/core#closeMatch": ["http://openstreetmap.org/node/11109379095", "http://wikidata.org/entity/Q61788595"], "http://www.w3.org/2004/02/skos/core#prefLabel": ["Toplitsa Cave (Bulgaria)"], "http://www.w3.org/2004/02/skos/core#scopeNote": ["CI findspot related from literature"], "http://www.w3.org/ns/prov#wasAttributedTo": ["http://orcid.org/0000-0002-3246-3531", "https://github.com/Research-Squirrel-Engineers/campanian-ignimbrite-geo/blob/main/py/CI.py"], "http://www.w3.org/ns/prov#wasDerivedFrom": ["https://github.com/Research-Squirrel-Engineers/campanian-ignimbrite-geo"], "http://www.w3.org/ns/prov#wasGeneratedBy": ["http://w3id.org/geo-lod/ci/cisite_44_activity", "http://w3id.org/geo-lod/ci/cisite_44_pyscript"]}, "geometry": {"type": "Point", "coordinates": [24.0053, 43.1907], "crs": "4326"}, "crs": "EPSG:4326"}, {"type": "Feature", "id": "http://w3id.org/geo-lod/ci/cisite_43", "name": "", "dateprops": [], "properties": {"http://purl.org/dc/terms/creator": ["https://orcid.org/0000-0002-3246-3531", "https://orcid.org/0000-0003-1100-6494"], "http://purl.org/dc/terms/license": ["https://creativecommons.org/licenses/by/4.0/"], "http://purl.org/dc/terms/rightsHolder": ["https://orcid.org/0000-0002-3246-3531", "https://orcid.org/0000-0003-1100-6494"], "http://rdfs.org/ns/void#inDataset": ["http://w3id.org/geo-lod/geo-lod"], "http://w3id.org/geo-lod/hasCertaintyDescription": ["findspot mentioned in a scientific paper"], "http://w3id.org/geo-lod/hasCertaintyLevel": ["http://fuzzy-sl.squirrel.link/ontology/high"], "http://w3id.org/geo-lod/hasLiteratureReference": ["Fedele et al., 2008, 2003", "Fitzsimmons et al., 2013", "Giaccio et al., 2008"], "http://w3id.org/geo-lod/hasSpatialType": ["http://fuzzy-sl.squirrel.link/ontology/Cave"], "http://www.opengis.net/ont/geosparql#hasGeometry": ["http://w3id.org/geo-lod/ci/cisite_43_geom"], "http://www.w3.org/1999/02/22-rdf-syntax-ns#type": ["http://fuzzy-sl.squirrel.link/ontology/Site", "http://w3id.org/geo-lod/CIFindspot", "http://www.w3.org/ns/prov#Entity", "https://pleiades.stoa.org/places/vocab#Place"], "http://www.w3.org/2000/01/rdf-schema#comment": ["CI findspot related from literature"], "http://www.w3.org/2000/01/rdf-schema#label": ["Temnata Cave (Bulgaria)"], "http://www.w3.org/2004/02/skos/core#closeMatch": ["http://openstreetmap.org/node/369821847", "http://sws.geonames.org/726486", "http://wikidata.org/entity/Q12296153"], "http://www.w3.org/2004/02/skos/core#prefLabel": ["Temnata Cave (Bulgaria)"], "http://www.w3.org/2004/02/skos/core#scopeNote": ["CI findspot related from literature"], "http://www.w3.org/ns/prov#wasAttributedTo": ["http://orcid.org/0009-0008-2877-3204", "https://github.com/Research-Squirrel-Engineers/campanian-ignimbrite-geo/blob/main/py/CI.py"], "http://www.w3.org/ns/prov#wasDerivedFrom": ["https://github.com/Research-Squirrel-Engineers/campanian-ignimbrite-geo"], "http://www.w3.org/ns/prov#wasGeneratedBy": ["http://w3id.org/geo-lod/ci/cisite_43_activity", "http://w3id.org/geo-lod/ci/cisite_43_pyscript"]}, "geometry": {"type": "Point", "coordinates": [23.3848, 43.0892], "crs": "4326"}, "crs": "EPSG:4326"}, {"type": "Feature", "id": "http://w3id.org/geo-lod/ci/cisite_201_geom", "name": "", "dateprops": [], "properties": {"http://rdfs.org/ns/void#inDataset": ["http://w3id.org/geo-lod/geo-lod"], "http://w3id.org/geo-lod/hasCertaintyDescription": ["findspot mentioned in a scientific paper"], "http://w3id.org/geo-lod/hasCertaintyLevel": ["http://fuzzy-sl.squirrel.link/ontology/high"], "http://www.opengis.net/ont/geosparql#asWKT": ["<http://www.opengis.net/def/crs/EPSG/0/4326> POINT(6.5951 50.2825)"], "http://www.w3.org/1999/02/22-rdf-syntax-ns#type": ["http://www.ics.forth.gr/isl/CRMgeo/SP6_Declarative_Place", "http://www.opengis.net/ont/sf#Point"]}, "geometry": {"type": "Point", "coordinates": [6.5951, 50.2825], "crs": "4326"}, "crs": "EPSG:4326"}, {"type": "Feature", "id": "http://w3id.org/geo-lod/ci/cisite_49", "name": "", "dateprops": [], "properties": {"http://purl.org/dc/terms/creator": ["https://orcid.org/0000-0002-3246-3531", "https://orcid.org/0000-0003-1100-6494"], "http://purl.org/dc/terms/license": ["https://creativecommons.org/licenses/by/4.0/"], "http://purl.org/dc/terms/rightsHolder": ["https://orcid.org/0000-0002-3246-3531", "https://orcid.org/0000-0003-1100-6494"], "http://rdfs.org/ns/void#inDataset": ["http://w3id.org/geo-lod/geo-lod"], "http://w3id.org/geo-lod/hasCertaintyDescription": ["findspot mentioned in a scientific paper"], "http://w3id.org/geo-lod/hasCertaintyLevel": ["http://fuzzy-sl.squirrel.link/ontology/high"], "http://w3id.org/geo-lod/hasLiteratureReference": ["Leicher et al., 2016", "Leicher et al., 2019"], "http://w3id.org/geo-lod/hasSpatialType": ["http://fuzzy-sl.squirrel.link/ontology/Lake"], "http://www.opengis.net/ont/geosparql#hasGeometry": ["http://w3id.org/geo-lod/ci/cisite_49_geom"], "http://www.w3.org/1999/02/22-rdf-syntax-ns#type": ["http://fuzzy-sl.squirrel.link/ontology/Site", "http://w3id.org/geo-lod/CIFindspot", "http://www.w3.org/ns/prov#Entity", "https://pleiades.stoa.org/places/vocab#Place"], "http://www.w3.org/2000/01/rdf-schema#comment": ["CI findspot related from literature"], "http://www.w3.org/2000/01/rdf-schema#label": ["Lake Ohrid (Macedonia)"], "http://www.w3.org/2004/02/skos/core#closeMatch": ["http://wikidata.org/entity/Q156258", "https://www.openstreetmap.org/relation/2905270"], "http://www.w3.org/2004/02/skos/core#prefLabel": ["Lake Ohrid (Macedonia)"], "http://www.w3.org/2004/02/skos/core#scopeNote": ["CI findspot related from literature"], "http://www.w3.org/ns/prov#wasAttributedTo": ["http://orcid.org/0009-0008-2877-3204", "https://github.com/Research-Squirrel-Engineers/campanian-ignimbrite-geo/blob/main/py/CI.py"], "http://www.w3.org/ns/prov#wasDerivedFrom": ["https://github.com/Research-Squirrel-Engineers/campanian-ignimbrite-geo"], "http://www.w3.org/ns/prov#wasGeneratedBy": ["http://w3id.org/geo-lod/ci/cisite_49_activity", "http://w3id.org/geo-lod/ci/cisite_49_pyscript"]}, "geometry": {"type": "Point", "coordinates": [20.7409, 41.0467], "crs": "4326"}, "crs": "EPSG:4326"}, {"type": "Feature", "id": "http://w3id.org/geo-lod/ci/cisite_15_geom", "name": "", "dateprops": [], "properties": {"http://rdfs.org/ns/void#inDataset": ["http://w3id.org/geo-lod/geo-lod"], "http://w3id.org/geo-lod/hasCertaintyDescription": ["findspot mentioned in a scientific paper"], "http://w3id.org/geo-lod/hasCertaintyLevel": ["http://fuzzy-sl.squirrel.link/ontology/high"], "http://www.opengis.net/ont/geosparql#asWKT": ["<http://www.opengis.net/def/crs/EPSG/0/4326> POINT (15.6098 40.9319)"], "http://www.w3.org/1999/02/22-rdf-syntax-ns#type": ["http://www.ics.forth.gr/isl/CRMgeo/SP6_Declarative_Place", "http://www.opengis.net/ont/sf#Point"]}, "geometry": {"type": "Point", "coordinates": [15.6098, 40.9319], "crs": "4326"}, "crs": "EPSG:4326"}, {"type": "Feature", "id": "http://w3id.org/geo-lod/ci/cisite_41_geom", "name": "", "dateprops": [], "properties": {"http://rdfs.org/ns/void#inDataset": ["http://w3id.org/geo-lod/geo-lod"], "http://w3id.org/geo-lod/hasCertaintyDescription": ["findspot mentioned in a scientific paper"], "http://w3id.org/geo-lod/hasCertaintyLevel": ["http://fuzzy-sl.squirrel.link/ontology/high"], "http://www.opengis.net/ont/geosparql#asWKT": ["<http://www.opengis.net/def/crs/EPSG/0/4326> POINT(20.6749 40.9874)"], "http://www.w3.org/1999/02/22-rdf-syntax-ns#type": ["http://www.ics.forth.gr/isl/CRMgeo/SP6_Declarative_Place", "http://www.opengis.net/ont/sf#Point"]}, "geometry": {"type": "Point", "coordinates": [20.6749, 40.9874], "crs": "4326"}, "crs": "EPSG:4326"}, {"type": "Feature", "id": "http://w3id.org/geo-lod/ci/cisite_5_geom", "name": "", "dateprops": [], "properties": {"http://rdfs.org/ns/void#inDataset": ["http://w3id.org/geo-lod/geo-lod"], "http://w3id.org/geo-lod/hasCertaintyDescription": ["findspot mentioned in a scientific paper"], "http://w3id.org/geo-lod/hasCertaintyLevel": ["http://fuzzy-sl.squirrel.link/ontology/high"], "http://www.opengis.net/ont/geosparql#asWKT": ["<http://www.opengis.net/def/crs/EPSG/0/4326> POINT(15.2092 40.4956)"], "http://www.w3.org/1999/02/22-rdf-syntax-ns#type": ["http://www.ics.forth.gr/isl/CRMgeo/SP6_Declarative_Place", "http://www.opengis.net/ont/sf#Point"]}, "geometry": {"type": "Point", "coordinates": [15.2092, 40.4956], "crs": "4326"}, "crs": "EPSG:4326"}, {"type": "Feature", "id": "http://w3id.org/geo-lod/ci/cisite_202", "name": "", "dateprops": [], "properties": {"http://purl.org/dc/terms/creator": ["https://orcid.org/0000-0002-3246-3531", "https://orcid.org/0000-0003-1100-6494"], "http://purl.org/dc/terms/license": ["https://creativecommons.org/licenses/by/4.0/"], "http://purl.org/dc/terms/rightsHolder": ["https://orcid.org/0000-0002-3246-3531", "https://orcid.org/0000-0003-1100-6494"], "http://rdfs.org/ns/void#inDataset": ["http://w3id.org/geo-lod/geo-lod"], "http://w3id.org/geo-lod/hasCertaintyDescription": ["findspot mentioned in a scientific paper"], "http://w3id.org/geo-lod/hasCertaintyLevel": ["http://fuzzy-sl.squirrel.link/ontology/high"], "http://w3id.org/geo-lod/hasLiteratureReference": ["Schenk et al. (2024)"], "http://w3id.org/geo-lod/hasSpatialType": ["http://fuzzy-sl.squirrel.link/ontology/Maar"], "http://www.opengis.net/ont/geosparql#hasGeometry": ["http://w3id.org/geo-lod/ci/cisite_202_geom"], "http://www.w3.org/1999/02/22-rdf-syntax-ns#type": ["http://fuzzy-sl.squirrel.link/ontology/Site", "http://w3id.org/geo-lod/CIFindspot", "http://www.w3.org/ns/prov#Entity", "https://pleiades.stoa.org/places/vocab#Place"], "http://www.w3.org/2000/01/rdf-schema#comment": ["CI findspot related from literature"], "http://www.w3.org/2000/01/rdf-schema#label": ["Auel Maar AU4"], "http://www.w3.org/2004/02/skos/core#closeMatch": ["http://wikidata.org/entity/Q134466471"], "http://www.w3.org/2004/02/skos/core#prefLabel": ["Auel Maar AU4"], "http://www.w3.org/2004/02/skos/core#scopeNote": ["CI findspot related from literature"], "http://www.w3.org/ns/prov#wasAttributedTo": ["http://orcid.org/0009-0008-2877-3204", "https://github.com/Research-Squirrel-Engineers/campanian-ignimbrite-geo/blob/main/py/CI.py"], "http://www.w3.org/ns/prov#wasDerivedFrom": ["https://github.com/Research-Squirrel-Engineers/campanian-ignimbrite-geo"], "http://www.w3.org/ns/prov#wasGeneratedBy": ["http://w3id.org/geo-lod/ci/cisite_202_activity", "http://w3id.org/geo-lod/ci/cisite_202_pyscript"]}, "geometry": {"type": "Point", "coordinates": [6.5949, 50.2821], "crs": "4326"}, "crs": "EPSG:4326"}, {"type": "Feature", "id": "http://w3id.org/geo-lod/ci/cisite_15", "name": "", "dateprops": [], "properties": {"http://fuzzy-sl.squirrel.link/ontology/spatialCloseMatch": ["https://www.openstreetmap.org/relation/15802545"], "http://purl.org/dc/terms/creator": ["https://orcid.org/0000-0002-3246-3531", "https://orcid.org/0000-0003-1100-6494"], "http://purl.org/dc/terms/license": ["https://creativecommons.org/licenses/by/4.0/"], "http://purl.org/dc/terms/rightsHolder": ["https://orcid.org/0000-0002-3246-3531", "https://orcid.org/0000-0003-1100-6494"], "http://rdfs.org/ns/void#inDataset": ["http://w3id.org/geo-lod/geo-lod"], "http://w3id.org/geo-lod/hasCertaintyDescription": ["findspot mentioned in a scientific paper"], "http://w3id.org/geo-lod/hasCertaintyLevel": ["http://fuzzy-sl.squirrel.link/ontology/high"], "http://w3id.org/geo-lod/hasLiteratureReference": ["Brauer et al., 2000", "Fedele et al., 2003"], "http://w3id.org/geo-lod/hasSpatialType": ["http://fuzzy-sl.squirrel.link/ontology/Lake"], "http://www.opengis.net/ont/geosparql#hasGeometry": ["http://w3id.org/geo-lod/ci/cisite_15_geom"], "http://www.w3.org/1999/02/22-rdf-syntax-ns#type": ["http://fuzzy-sl.squirrel.link/ontology/Site", "http://w3id.org/geo-lod/CIFindspot", "http://www.w3.org/ns/prov#Entity", "https://pleiades.stoa.org/places/vocab#Place"], "http://www.w3.org/2000/01/rdf-schema#comment": ["CI findspot related from literature"], "http://www.w3.org/2000/01/rdf-schema#label": ["Monticchio Lakes"], "http://www.w3.org/2004/02/skos/core#prefLabel": ["Monticchio Lakes"], "http://www.w3.org/2004/02/skos/core#scopeNote": ["CI findspot related from literature"], "http://www.w3.org/ns/prov#wasAttributedTo": ["http://orcid.org/0009-0008-2877-3204", "https://github.com/Research-Squirrel-Engineers/campanian-ignimbrite-geo/blob/main/py/CI.py"], "http://www.w3.org/ns/prov#wasDerivedFrom": ["https://github.com/Research-Squirrel-Engineers/campanian-ignimbrite-geo"], "http://www.w3.org/ns/prov#wasGeneratedBy": ["http://w3id.org/geo-lod/ci/cisite_15_activity", "http://w3id.org/geo-lod/ci/cisite_15_pyscript"]}, "geometry": {"type": "Point", "coordinates": [15.6098, 40.9319], "crs": "4326"}, "crs": "EPSG:4326"}, {"type": "Feature", "id": "http://w3id.org/geo-lod/ci/cisite_5", "name": "", "dateprops": [], "properties": {"http://purl.org/dc/terms/creator": ["https://orcid.org/0000-0002-3246-3531", "https://orcid.org/0000-0003-1100-6494"], "http://purl.org/dc/terms/license": ["https://creativecommons.org/licenses/by/4.0/"], "http://purl.org/dc/terms/rightsHolder": ["https://orcid.org/0000-0002-3246-3531", "https://orcid.org/0000-0003-1100-6494"], "http://rdfs.org/ns/void#inDataset": ["http://w3id.org/geo-lod/geo-lod"], "http://w3id.org/geo-lod/hasCertaintyDescription": ["findspot mentioned in a scientific paper"], "http://w3id.org/geo-lod/hasCertaintyLevel": ["http://fuzzy-sl.squirrel.link/ontology/high"], "http://w3id.org/geo-lod/hasLiteratureReference": ["Fedele et al., 2008", "Giaccio et al., 2008"], "http://w3id.org/geo-lod/hasSpatialType": ["http://fuzzy-sl.squirrel.link/ontology/Cave"], "http://www.opengis.net/ont/geosparql#hasGeometry": ["http://w3id.org/geo-lod/ci/cisite_5_geom"], "http://www.w3.org/1999/02/22-rdf-syntax-ns#type": ["http://fuzzy-sl.squirrel.link/ontology/Site", "http://w3id.org/geo-lod/CIFindspot", "http://www.w3.org/ns/prov#Entity", "https://pleiades.stoa.org/places/vocab#Place"], "http://www.w3.org/2000/01/rdf-schema#comment": ["CI findspot related from literature"], "http://www.w3.org/2000/01/rdf-schema#label": ["Castelcivita Cave"], "http://www.w3.org/2004/02/skos/core#closeMatch": ["http://openstreetmap.org/node/337519639", "http://wikidata.org/entity/Q3777120"], "http://www.w3.org/2004/02/skos/core#prefLabel": ["Castelcivita Cave"], "http://www.w3.org/2004/02/skos/core#scopeNote": ["CI findspot related from literature"], "http://www.w3.org/ns/prov#wasAttributedTo": ["http://orcid.org/0000-0002-3246-3531", "https://github.com/Research-Squirrel-Engineers/campanian-ignimbrite-geo/blob/main/py/CI.py"], "http://www.w3.org/ns/prov#wasDerivedFrom": ["https://github.com/Research-Squirrel-Engineers/campanian-ignimbrite-geo"], "http://www.w3.org/ns/prov#wasGeneratedBy": ["http://w3id.org/geo-lod/ci/cisite_5_activity", "http://w3id.org/geo-lod/ci/cisite_5_pyscript"]}, "geometry": {"type": "Point", "coordinates": [15.2092, 40.4956], "crs": "4326"}, "crs": "EPSG:4326"}, {"type": "Feature", "id": "http://w3id.org/geo-lod/ci/cisite_42_geom", "name": "", "dateprops": [], "properties": {"http://rdfs.org/ns/void#inDataset": ["http://w3id.org/geo-lod/geo-lod"], "http://w3id.org/geo-lod/hasCertaintyDescription": ["findspot mentioned in a scientific paper"], "http://w3id.org/geo-lod/hasCertaintyLevel": ["http://fuzzy-sl.squirrel.link/ontology/high"], "http://www.opengis.net/ont/geosparql#asWKT": ["<http://www.opengis.net/def/crs/EPSG/0/4326> POINT(22.7024 43.6519)"], "http://www.w3.org/1999/02/22-rdf-syntax-ns#type": ["http://www.ics.forth.gr/isl/CRMgeo/SP6_Declarative_Place", "http://www.opengis.net/ont/sf#Point"]}, "geometry": {"type": "Point", "coordinates": [22.7024, 43.6519], "crs": "4326"}, "crs": "EPSG:4326"}, {"type": "Feature", "id": "http://w3id.org/geo-lod/ci/cisite_44_geom", "name": "", "dateprops": [], "properties": {"http://rdfs.org/ns/void#inDataset": ["http://w3id.org/geo-lod/geo-lod"], "http://w3id.org/geo-lod/hasCertaintyDescription": ["findspot mentioned in a scientific paper"], "http://w3id.org/geo-lod/hasCertaintyLevel": ["http://fuzzy-sl.squirrel.link/ontology/high"], "http://www.opengis.net/ont/geosparql#asWKT": ["<http://www.opengis.net/def/crs/EPSG/0/4326> POINT(24.0053 43.1907)"], "http://www.w3.org/1999/02/22-rdf-syntax-ns#type": ["http://www.ics.forth.gr/isl/CRMgeo/SP6_Declarative_Place", "http://www.opengis.net/ont/sf#Point"]}, "geometry": {"type": "Point", "coordinates": [24.0053, 43.1907], "crs": "4326"}, "crs": "EPSG:4326"}], "numberMatched": 28, "numberReturned": 28, "bbox": [6.5066, 32.9002, 24.0053, 50.2928], "crs": "http://www.opengis.net/def/crs/EPSG/0/EPSG:4326"}