{"type": "FeatureCollection", "id": "http://fuzzy-sl.squirrel.link/ontology/Cave", "name": "Cave", "features": [{"type": "Feature", "id": "http://w3id.org/geo-lod/ci/cisite_5", "name": "", "dateprops": [], "properties": {"http://purl.org/dc/terms/creator": ["https://orcid.org/0000-0002-3246-3531", "https://orcid.org/0000-0003-1100-6494"], "http://purl.org/dc/terms/license": ["https://creativecommons.org/licenses/by/4.0/"], "http://purl.org/dc/terms/rightsHolder": ["https://orcid.org/0000-0002-3246-3531", "https://orcid.org/0000-0003-1100-6494"], "http://rdfs.org/ns/void#inDataset": ["http://w3id.org/geo-lod/geo-lod"], "http://w3id.org/geo-lod/hasCertaintyDescription": ["findspot mentioned in a scientific paper"], "http://w3id.org/geo-lod/hasCertaintyLevel": ["http://fuzzy-sl.squirrel.link/ontology/high"], "http://w3id.org/geo-lod/hasLiteratureReference": ["Fedele et al., 2008", "Giaccio et al., 2008"], "http://w3id.org/geo-lod/hasSpatialType": ["http://fuzzy-sl.squirrel.link/ontology/Cave"], "http://www.opengis.net/ont/geosparql#hasGeometry": ["http://w3id.org/geo-lod/ci/cisite_5_geom"], "http://www.w3.org/1999/02/22-rdf-syntax-ns#type": ["http://fuzzy-sl.squirrel.link/ontology/Site", "http://w3id.org/geo-lod/CIFindspot", "http://www.w3.org/ns/prov#Entity", "https://pleiades.stoa.org/places/vocab#Place"], "http://www.w3.org/2000/01/rdf-schema#comment": ["CI findspot related from literature"], "http://www.w3.org/2000/01/rdf-schema#label": ["Castelcivita Cave"], "http://www.w3.org/2004/02/skos/core#closeMatch": ["http://openstreetmap.org/node/337519639", "http://wikidata.org/entity/Q3777120"], "http://www.w3.org/2004/02/skos/core#prefLabel": ["Castelcivita Cave"], "http://www.w3.org/2004/02/skos/core#scopeNote": ["CI findspot related from literature"], "http://www.w3.org/ns/prov#wasAttributedTo": ["http://orcid.org/0000-0002-3246-3531", "https://github.com/Research-Squirrel-Engineers/campanian-ignimbrite-geo/blob/main/py/CI.py"], "http://www.w3.org/ns/prov#wasDerivedFrom": ["https://github.com/Research-Squirrel-Engineers/campanian-ignimbrite-geo"], "http://www.w3.org/ns/prov#wasGeneratedBy": ["http://w3id.org/geo-lod/ci/cisite_5_activity", "http://w3id.org/geo-lod/ci/cisite_5_pyscript"]}, "geometry": {"type": "Point", "coordinates": [15.2092, 40.4956], "crs": "4326"}, "crs": "EPSG:4326"}, {"type": "Feature", "id": "http://w3id.org/geo-lod/ci/cisite_44", "name": "", "dateprops": [], "properties": {"http://purl.org/dc/terms/creator": ["https://orcid.org/0000-0002-3246-3531", "https://orcid.org/0000-0003-1100-6494"], "http://purl.org/dc/terms/license": ["https://creativecommons.org/licenses/by/4.0/"], "http://purl.org/dc/terms/rightsHolder": ["https://orcid.org/0000-0002-3246-3531", "https://orcid.org/0000-0003-1100-6494"], "http://rdfs.org/ns/void#inDataset": ["http://w3id.org/geo-lod/geo-lod"], "http://w3id.org/geo-lod/hasCertaintyDescription": ["findspot mentioned in a scientific paper"], "http://w3id.org/geo-lod/hasCertaintyLevel": ["http://fuzzy-sl.squirrel.link/ontology/high"], "http://w3id.org/geo-lod/hasLiteratureReference": ["Tsanova et al., 2021"], "http://w3id.org/geo-lod/hasSpatialType": ["http://fuzzy-sl.squirrel.link/ontology/ArchaeologicalSite", "http://fuzzy-sl.squirrel.link/ontology/Cave"], "http://www.opengis.net/ont/geosparql#hasGeometry": ["http://w3id.org/geo-lod/ci/cisite_44_geom"], "http://www.w3.org/1999/02/22-rdf-syntax-ns#type": ["http://fuzzy-sl.squirrel.link/ontology/Site", "http://w3id.org/geo-lod/CIArchaeologicalSite", "http://w3id.org/geo-lod/CIFindspot", "http://www.cidoc-crm.org/extensions/crmarchaeo/A2_Stratigraphic_Volume_Unit", "http://www.w3.org/ns/prov#Entity", "https://pleiades.stoa.org/places/vocab#Place"], "http://www.w3.org/2000/01/rdf-schema#comment": ["CI findspot related from literature"], "http://www.w3.org/2000/01/rdf-schema#label": ["Toplitsa Cave (Bulgaria)"], "http://www.w3.org/2004/02/skos/core#closeMatch": ["http://openstreetmap.org/node/11109379095", "http://wikidata.org/entity/Q61788595"], "http://www.w3.org/2004/02/skos/core#prefLabel": ["Toplitsa Cave (Bulgaria)"], "http://www.w3.org/2004/02/skos/core#scopeNote": ["CI findspot related from literature"], "http://www.w3.org/ns/prov#wasAttributedTo": ["http://orcid.org/0000-0002-3246-3531", "https://github.com/Research-Squirrel-Engineers/campanian-ignimbrite-geo/blob/main/py/CI.py"], "http://www.w3.org/ns/prov#wasDerivedFrom": ["https://github.com/Research-Squirrel-Engineers/campanian-ignimbrite-geo"], "http://www.w3.org/ns/prov#wasGeneratedBy": ["http://w3id.org/geo-lod/ci/cisite_44_activity", "http://w3id.org/geo-lod/ci/cisite_44_pyscript"]}, "geometry": {"type": "Point", "coordinates": [24.0053, 43.1907], "crs": "4326"}, "crs": "EPSG:4326"}, {"type": "Feature", "id": "http://w3id.org/geo-lod/ci/cisite_43", "name": "", "dateprops": [], "properties": {"http://purl.org/dc/terms/creator": ["https://orcid.org/0000-0002-3246-3531", "https://orcid.org/0000-0003-1100-6494"], "http://purl.org/dc/terms/license": ["https://creativecommons.org/licenses/by/4.0/"], "http://purl.org/dc/terms/rightsHolder": ["https://orcid.org/0000-0002-3246-3531", "https://orcid.org/0000-0003-1100-6494"], "http://rdfs.org/ns/void#inDataset": ["http://w3id.org/geo-lod/geo-lod"], "http://w3id.org/geo-lod/hasCertaintyDescription": ["findspot mentioned in a scientific paper"], "http://w3id.org/geo-lod/hasCertaintyLevel": ["http://fuzzy-sl.squirrel.link/ontology/high"], "http://w3id.org/geo-lod/hasLiteratureReference": ["Fedele et al., 2008, 2003", "Fitzsimmons et al., 2013", "Giaccio et al., 2008"], "http://w3id.org/geo-lod/hasSpatialType": ["http://fuzzy-sl.squirrel.link/ontology/Cave"], "http://www.opengis.net/ont/geosparql#hasGeometry": ["http://w3id.org/geo-lod/ci/cisite_43_geom"], "http://www.w3.org/1999/02/22-rdf-syntax-ns#type": ["http://fuzzy-sl.squirrel.link/ontology/Site", "http://w3id.org/geo-lod/CIFindspot", "http://www.w3.org/ns/prov#Entity", "https://pleiades.stoa.org/places/vocab#Place"], "http://www.w3.org/2000/01/rdf-schema#comment": ["CI findspot related from literature"], "http://www.w3.org/2000/01/rdf-schema#label": ["Temnata Cave (Bulgaria)"], "http://www.w3.org/2004/02/skos/core#closeMatch": ["http://openstreetmap.org/node/369821847", "http://sws.geonames.org/726486", "http://wikidata.org/entity/Q12296153"], "http://www.w3.org/2004/02/skos/core#prefLabel": ["Temnata Cave (Bulgaria)"], "http://www.w3.org/2004/02/skos/core#scopeNote": ["CI findspot related from literature"], "http://www.w3.org/ns/prov#wasAttributedTo": ["http://orcid.org/0009-0008-2877-3204", "https://github.com/Research-Squirrel-Engineers/campanian-ignimbrite-geo/blob/main/py/CI.py"], "http://www.w3.org/ns/prov#wasDerivedFrom": ["https://github.com/Research-Squirrel-Engineers/campanian-ignimbrite-geo"], "http://www.w3.org/ns/prov#wasGeneratedBy": ["http://w3id.org/geo-lod/ci/cisite_43_activity", "http://w3id.org/geo-lod/ci/cisite_43_pyscript"]}, "geometry": {"type": "Point", "coordinates": [23.3848, 43.0892], "crs": "4326"}, "crs": "EPSG:4326"}, {"type": "Feature", "id": "http://w3id.org/geo-lod/ci/cisite_51", "name": "", "dateprops": [], "properties": {"http://purl.org/dc/terms/creator": ["https://orcid.org/0000-0002-3246-3531", "https://orcid.org/0000-0003-1100-6494"], "http://purl.org/dc/terms/license": ["https://creativecommons.org/licenses/by/4.0/"], "http://purl.org/dc/terms/rightsHolder": ["https://orcid.org/0000-0002-3246-3531", "https://orcid.org/0000-0003-1100-6494"], "http://rdfs.org/ns/void#inDataset": ["http://w3id.org/geo-lod/geo-lod"], "http://w3id.org/geo-lod/hasCertaintyDescription": ["findspot mentioned in a scientific paper and found on OpenStreetMap"], "http://w3id.org/geo-lod/hasCertaintyLevel": ["http://fuzzy-sl.squirrel.link/ontology/high"], "http://w3id.org/geo-lod/hasLiteratureReference": ["Morley & Woodward, 2011"], "http://w3id.org/geo-lod/hasSpatialType": ["http://fuzzy-sl.squirrel.link/ontology/ArchaeologicalSite", "http://fuzzy-sl.squirrel.link/ontology/Cave"], "http://www.opengis.net/ont/geosparql#hasGeometry": ["http://w3id.org/geo-lod/ci/cisite_51_geom"], "http://www.w3.org/1999/02/22-rdf-syntax-ns#type": ["http://fuzzy-sl.squirrel.link/ontology/Site", "http://w3id.org/geo-lod/CIArchaeologicalSite", "http://w3id.org/geo-lod/CIFindspot", "http://www.cidoc-crm.org/extensions/crmarchaeo/A2_Stratigraphic_Volume_Unit", "http://www.w3.org/ns/prov#Entity", "https://pleiades.stoa.org/places/vocab#Place"], "http://www.w3.org/2000/01/rdf-schema#comment": ["CI findspot related from literature"], "http://www.w3.org/2000/01/rdf-schema#label": ["Crvena Stiljena (Montenegro)"], "http://www.w3.org/2004/02/skos/core#closeMatch": ["http://openstreetmap.org/node/10879170567", "http://wikidata.org/entity/Q121418883"], "http://www.w3.org/2004/02/skos/core#prefLabel": ["Crvena Stiljena (Montenegro)"], "http://www.w3.org/2004/02/skos/core#scopeNote": ["CI findspot related from literature"], "http://www.w3.org/ns/prov#wasAttributedTo": ["http://orcid.org/0009-0008-2877-3204", "https://github.com/Research-Squirrel-Engineers/campanian-ignimbrite-geo/blob/main/py/CI.py"], "http://www.w3.org/ns/prov#wasDerivedFrom": ["https://github.com/Research-Squirrel-Engineers/campanian-ignimbrite-geo"], "http://www.w3.org/ns/prov#wasGeneratedBy": ["http://w3id.org/geo-lod/ci/cisite_51_activity", "http://w3id.org/geo-lod/ci/cisite_51_pyscript"]}, "geometry": {"type": "Point", "coordinates": [18.4815, 42.779], "crs": "4326"}, "crs": "EPSG:4326"}, {"type": "Feature", "id": "http://w3id.org/geo-lod/ci/cisite_42", "name": "", "dateprops": [], "properties": {"http://purl.org/dc/terms/creator": ["https://orcid.org/0000-0002-3246-3531", "https://orcid.org/0000-0003-1100-6494"], "http://purl.org/dc/terms/license": ["https://creativecommons.org/licenses/by/4.0/"], "http://purl.org/dc/terms/rightsHolder": ["https://orcid.org/0000-0002-3246-3531", "https://orcid.org/0000-0003-1100-6494"], "http://rdfs.org/ns/void#inDataset": ["http://w3id.org/geo-lod/geo-lod"], "http://w3id.org/geo-lod/hasCertaintyDescription": ["findspot mentioned in a scientific paper"], "http://w3id.org/geo-lod/hasCertaintyLevel": ["http://fuzzy-sl.squirrel.link/ontology/high"], "http://w3id.org/geo-lod/hasLiteratureReference": ["Lowe et al., 2012"], "http://w3id.org/geo-lod/hasSpatialType": ["http://fuzzy-sl.squirrel.link/ontology/Cave"], "http://www.opengis.net/ont/geosparql#hasGeometry": ["http://w3id.org/geo-lod/ci/cisite_42_geom"], "http://www.w3.org/1999/02/22-rdf-syntax-ns#type": ["http://fuzzy-sl.squirrel.link/ontology/Site", "http://w3id.org/geo-lod/CIFindspot", "http://www.w3.org/ns/prov#Entity", "https://pleiades.stoa.org/places/vocab#Place"], "http://www.w3.org/2000/01/rdf-schema#comment": ["CI findspot related from literature"], "http://www.w3.org/2000/01/rdf-schema#label": ["Kozarnika Cave (Bulgaria)"], "http://www.w3.org/2004/02/skos/core#closeMatch": ["http://openstreetmap.org/node/8814442373", "http://wikidata.org/entity/Q2037533"], "http://www.w3.org/2004/02/skos/core#prefLabel": ["Kozarnika Cave (Bulgaria)"], "http://www.w3.org/2004/02/skos/core#scopeNote": ["CI findspot related from literature"], "http://www.w3.org/ns/prov#wasAttributedTo": ["http://orcid.org/0009-0008-2877-3204", "https://github.com/Research-Squirrel-Engineers/campanian-ignimbrite-geo/blob/main/py/CI.py"], "http://www.w3.org/ns/prov#wasDerivedFrom": ["https://github.com/Research-Squirrel-Engineers/campanian-ignimbrite-geo"], "http://www.w3.org/ns/prov#wasGeneratedBy": ["http://w3id.org/geo-lod/ci/cisite_42_activity", "http://w3id.org/geo-lod/ci/cisite_42_pyscript"]}, "geometry": {"type": "Point", "coordinates": [22.7024, 43.6519], "crs": "4326"}, "crs": "EPSG:4326"}, {"type": "Feature", "id": "http://w3id.org/geo-lod/ci/cisite_50", "name": "", "dateprops": [], "properties": {"http://purl.org/dc/terms/creator": ["https://orcid.org/0000-0002-3246-3531", "https://orcid.org/0000-0003-1100-6494"], "http://purl.org/dc/terms/license": ["https://creativecommons.org/licenses/by/4.0/"], "http://purl.org/dc/terms/rightsHolder": ["https://orcid.org/0000-0002-3246-3531", "https://orcid.org/0000-0003-1100-6494"], "http://rdfs.org/ns/void#inDataset": ["http://w3id.org/geo-lod/geo-lod"], "http://w3id.org/geo-lod/hasCertaintyDescription": ["findspot mentioned in a scientific paper"], "http://w3id.org/geo-lod/hasCertaintyLevel": ["http://fuzzy-sl.squirrel.link/ontology/dubious"], "http://w3id.org/geo-lod/hasLiteratureReference": ["Lowe et al., 2012"], "http://w3id.org/geo-lod/hasSpatialType": ["http://fuzzy-sl.squirrel.link/ontology/ArchaeologicalSite", "http://fuzzy-sl.squirrel.link/ontology/Cave"], "http://www.opengis.net/ont/geosparql#hasGeometry": ["http://w3id.org/geo-lod/ci/cisite_50_geom"], "http://www.w3.org/1999/02/22-rdf-syntax-ns#type": ["http://fuzzy-sl.squirrel.link/ontology/Site", "http://w3id.org/geo-lod/CIArchaeologicalSite", "http://w3id.org/geo-lod/CIFindspot", "http://www.cidoc-crm.org/extensions/crmarchaeo/A2_Stratigraphic_Volume_Unit", "http://www.w3.org/ns/prov#Entity", "https://pleiades.stoa.org/places/vocab#Place"], "http://www.w3.org/2000/01/rdf-schema#comment": ["CI findspot related from literature"], "http://www.w3.org/2000/01/rdf-schema#label": ["Golema Pesht Cave near Zdunje (Macedonia)"], "http://www.w3.org/2004/02/skos/core#closeMatch": ["http://openstreetmap.org/node/11107939919", "http://wikidata.org/entity/Q20565511"], "http://www.w3.org/2004/02/skos/core#prefLabel": ["Golema Pesht Cave near Zdunje (Macedonia)"], "http://www.w3.org/2004/02/skos/core#scopeNote": ["CI findspot related from literature"], "http://www.w3.org/ns/prov#wasAttributedTo": ["http://orcid.org/0009-0008-2877-3204", "https://github.com/Research-Squirrel-Engineers/campanian-ignimbrite-geo/blob/main/py/CI.py"], "http://www.w3.org/ns/prov#wasDerivedFrom": ["https://github.com/Research-Squirrel-Engineers/campanian-ignimbrite-geo"], "http://www.w3.org/ns/prov#wasGeneratedBy": ["http://w3id.org/geo-lod/ci/cisite_50_activity", "http://w3id.org/geo-lod/ci/cisite_50_pyscript"]}, "geometry": {"type": "Point", "coordinates": [21.1617, 41.8117], "crs": "4326"}, "crs": "EPSG:4326"}, {"type": "Feature", "id": "http://w3id.org/geo-lod/ci/cisite_45", "name": "", "dateprops": [], "properties": {"http://purl.org/dc/terms/creator": ["https://orcid.org/0000-0002-3246-3531", "https://orcid.org/0000-0003-1100-6494"], "http://purl.org/dc/terms/license": ["https://creativecommons.org/licenses/by/4.0/"], "http://purl.org/dc/terms/rightsHolder": ["https://orcid.org/0000-0002-3246-3531", "https://orcid.org/0000-0003-1100-6494"], "http://rdfs.org/ns/void#inDataset": ["http://w3id.org/geo-lod/geo-lod"], "http://w3id.org/geo-lod/hasCertaintyDescription": ["findspot mentioned in a scientific paper and found on OpenStreetMap"], "http://w3id.org/geo-lod/hasCertaintyLevel": ["http://fuzzy-sl.squirrel.link/ontology/high"], "http://w3id.org/geo-lod/hasLiteratureReference": ["Fedele et al., 2003"], "http://w3id.org/geo-lod/hasSpatialType": ["http://fuzzy-sl.squirrel.link/ontology/ArchaeologicalSite", "http://fuzzy-sl.squirrel.link/ontology/Cave"], "http://www.opengis.net/ont/geosparql#hasGeometry": ["http://w3id.org/geo-lod/ci/cisite_45_geom"], "http://www.w3.org/1999/02/22-rdf-syntax-ns#type": ["http://fuzzy-sl.squirrel.link/ontology/Site", "http://w3id.org/geo-lod/CIArchaeologicalSite", "http://w3id.org/geo-lod/CIFindspot", "http://www.cidoc-crm.org/extensions/crmarchaeo/A2_Stratigraphic_Volume_Unit", "http://www.w3.org/ns/prov#Entity", "https://pleiades.stoa.org/places/vocab#Place"], "http://www.w3.org/2000/01/rdf-schema#comment": ["CI findspot related from literature"], "http://www.w3.org/2000/01/rdf-schema#label": ["Franchthi Cave (Greece)"], "http://www.w3.org/2004/02/skos/core#closeMatch": ["http://openstreetmap.org/node/1221172611", "http://wikidata.org/entity/Q1441331"], "http://www.w3.org/2004/02/skos/core#prefLabel": ["Franchthi Cave (Greece)"], "http://www.w3.org/2004/02/skos/core#scopeNote": ["CI findspot related from literature"], "http://www.w3.org/ns/prov#wasAttributedTo": ["http://orcid.org/0000-0002-3246-3531", "https://github.com/Research-Squirrel-Engineers/campanian-ignimbrite-geo/blob/main/py/CI.py"], "http://www.w3.org/ns/prov#wasDerivedFrom": ["https://github.com/Research-Squirrel-Engineers/campanian-ignimbrite-geo"], "http://www.w3.org/ns/prov#wasGeneratedBy": ["http://w3id.org/geo-lod/ci/cisite_45_activity", "http://w3id.org/geo-lod/ci/cisite_45_pyscript"]}, "geometry": {"type": "Point", "coordinates": [23.1311, 37.4226], "crs": "4326"}, "crs": "EPSG:4326"}, {"type": "Feature", "id": "http://w3id.org/geo-lod/ci/cisite_65", "name": "", "dateprops": [], "properties": {"http://purl.org/dc/terms/creator": ["https://orcid.org/0000-0002-3246-3531", "https://orcid.org/0000-0003-1100-6494"], "http://purl.org/dc/terms/license": ["https://creativecommons.org/licenses/by/4.0/"], "http://purl.org/dc/terms/rightsHolder": ["https://orcid.org/0000-0002-3246-3531", "https://orcid.org/0000-0003-1100-6494"], "http://rdfs.org/ns/void#inDataset": ["http://w3id.org/geo-lod/geo-lod"], "http://w3id.org/geo-lod/hasCertaintyDescription": ["findspot mentioned in a scientific paper"], "http://w3id.org/geo-lod/hasCertaintyLevel": ["http://fuzzy-sl.squirrel.link/ontology/high"], "http://w3id.org/geo-lod/hasLiteratureReference": ["Lowe et al., 2012"], "http://w3id.org/geo-lod/hasSpatialType": ["http://fuzzy-sl.squirrel.link/ontology/ArchaeologicalSite", "http://fuzzy-sl.squirrel.link/ontology/Cave"], "http://www.opengis.net/ont/geosparql#hasGeometry": ["http://w3id.org/geo-lod/ci/cisite_65_geom"], "http://www.w3.org/1999/02/22-rdf-syntax-ns#type": ["http://fuzzy-sl.squirrel.link/ontology/Site", "http://w3id.org/geo-lod/CIArchaeologicalSite", "http://w3id.org/geo-lod/CIFindspot", "http://www.cidoc-crm.org/extensions/crmarchaeo/A2_Stratigraphic_Volume_Unit", "http://www.w3.org/ns/prov#Entity", "https://pleiades.stoa.org/places/vocab#Place"], "http://www.w3.org/2000/01/rdf-schema#comment": ["CI findspot related from literature"], "http://www.w3.org/2000/01/rdf-schema#label": ["Haua-Fteah (Libya)"], "http://www.w3.org/2004/02/skos/core#closeMatch": ["http://openstreetmap.org/node/7778324735", "http://wikidata.org/entity/Q25226810"], "http://www.w3.org/2004/02/skos/core#prefLabel": ["Haua-Fteah (Libya)"], "http://www.w3.org/2004/02/skos/core#scopeNote": ["CI findspot related from literature"], "http://www.w3.org/ns/prov#wasAttributedTo": ["http://orcid.org/0000-0002-3246-3531", "https://github.com/Research-Squirrel-Engineers/campanian-ignimbrite-geo/blob/main/py/CI.py"], "http://www.w3.org/ns/prov#wasDerivedFrom": ["https://github.com/Research-Squirrel-Engineers/campanian-ignimbrite-geo"], "http://www.w3.org/ns/prov#wasGeneratedBy": ["http://w3id.org/geo-lod/ci/cisite_65_activity", "http://w3id.org/geo-lod/ci/cisite_65_pyscript"]}, "geometry": {"type": "Point", "coordinates": [22.0516, 32.9002], "crs": "4326"}, "crs": "EPSG:4326"}, {"type": "Feature", "id": "http://w3id.org/geo-lod/ci/cisite_19", "name": "", "dateprops": [], "properties": {"http://purl.org/dc/terms/creator": ["https://orcid.org/0000-0002-3246-3531", "https://orcid.org/0000-0003-1100-6494"], "http://purl.org/dc/terms/license": ["https://creativecommons.org/licenses/by/4.0/"], "http://purl.org/dc/terms/rightsHolder": ["https://orcid.org/0000-0002-3246-3531", "https://orcid.org/0000-0003-1100-6494"], "http://rdfs.org/ns/void#inDataset": ["http://w3id.org/geo-lod/geo-lod"], "http://w3id.org/geo-lod/hasCertaintyDescription": ["findspot mentioned in a scientific paper"], "http://w3id.org/geo-lod/hasCertaintyLevel": ["http://fuzzy-sl.squirrel.link/ontology/medium"], "http://w3id.org/geo-lod/hasLiteratureReference": ["Giaccio et al., 2008"], "http://w3id.org/geo-lod/hasSpatialType": ["http://fuzzy-sl.squirrel.link/ontology/ArchaeologicalSite", "http://fuzzy-sl.squirrel.link/ontology/Cave"], "http://www.opengis.net/ont/geosparql#hasGeometry": ["http://w3id.org/geo-lod/ci/cisite_19_geom"], "http://www.w3.org/1999/02/22-rdf-syntax-ns#type": ["http://fuzzy-sl.squirrel.link/ontology/Site", "http://w3id.org/geo-lod/CIArchaeologicalSite", "http://w3id.org/geo-lod/CIFindspot", "http://www.cidoc-crm.org/extensions/crmarchaeo/A2_Stratigraphic_Volume_Unit", "http://www.w3.org/ns/prov#Entity", "https://pleiades.stoa.org/places/vocab#Place"], "http://www.w3.org/2000/01/rdf-schema#comment": ["CI findspot related from literature"], "http://www.w3.org/2000/01/rdf-schema#label": ["Paglicci Cave"], "http://www.w3.org/2004/02/skos/core#closeMatch": ["http://openstreetmap.org/node/2293681037", "http://wikidata.org/entity/Q3777010"], "http://www.w3.org/2004/02/skos/core#prefLabel": ["Paglicci Cave"], "http://www.w3.org/2004/02/skos/core#scopeNote": ["CI findspot related from literature"], "http://www.w3.org/ns/prov#wasAttributedTo": ["http://orcid.org/0000-0002-3246-3531", "https://github.com/Research-Squirrel-Engineers/campanian-ignimbrite-geo/blob/main/py/CI.py"], "http://www.w3.org/ns/prov#wasDerivedFrom": ["https://github.com/Research-Squirrel-Engineers/campanian-ignimbrite-geo"], "http://www.w3.org/ns/prov#wasGeneratedBy": ["http://w3id.org/geo-lod/ci/cisite_19_activity", "http://w3id.org/geo-lod/ci/cisite_19_pyscript"]}, "geometry": {"type": "Point", "coordinates": [15.615, 41.6541], "crs": "4326"}, "crs": "EPSG:4326"}], "numberMatched": 9, "numberReturned": 9, "bbox": [15.2092, 32.9002, 24.0053, 43.6519], "crs": "http://www.opengis.net/def/crs/EPSG/0/EPSG:4326"}