{"type": "FeatureCollection", "id": "http://w3id.org/geo-lod/Borehole_collection", "name": "Borehole Instances Collection", "features": [{"type": "Feature", "id": "http://w3id.org/geo-lod/epica/borehole_domec", "name": "DomeC (epica:borehole_domec)", "dateprops": [], "properties": {"http://www.w3.org/2000/01/rdf-schema#label": "DomeC", "http://w3id.org/geo-lod/elevation_m": "3233.0", "http://www.w3.org/2000/01/rdf-schema#comment": "Event as recorded in the two 2023 gas datasets. The coordinates differ from the EDC99 event by about 1.3 km although the material is from the same core; this is a difference between metadata records, not evidence of a second borehole.", "http://rdfs.org/ns/void#inDataset.value": "15987"}, "geometry": {"type": "Point", "coordinates": [123.395, -75.102], "crs": "4326"}}, {"type": "Feature", "id": "http://w3id.org/geo-lod/epica/borehole_edc99", "name": "EDC99 / EDC (EPICA Dome C) (epica:borehole_edc99)", "dateprops": [], "properties": {"http://www.w3.org/2000/01/rdf-schema#label": "EDC99 / EDC (EPICA Dome C)", "http://w3id.org/geo-lod/elevation_m": "3233.0", "http://www.w3.org/2000/01/rdf-schema#comment": "Event as recorded in the CH4, deuterium and dust datasets. Drilling ran 1996-2004; the first hole (EDC96) was abandoned at 788 m in 1999 and the record continues in EDC99.", "http://rdfs.org/ns/void#inDataset.value": "15987"}, "geometry": {"type": "Point", "coordinates": [123.35, -75.1], "crs": "4326"}}], "numberMatched": 2, "numberReturned": 2, "bbox": [123.35, -75.102, 123.395, -75.1], "crs": "http://www.opengis.net/def/crs/EPSG/0/4326"}