{"type": "FeatureCollection", "id": "http://w3id.org/geo-lod/CIArchaeologicalSite_collection", "name": "CIArchaeologicalSite Instances Collection", "features": [{"type": "Feature", "id": "http://w3id.org/geo-lod/ci/cisite_51", "name": "Crvena Stiljena (Montenegro) (ci:cisite_51)", "dateprops": [], "properties": {"http://www.w3.org/2000/01/rdf-schema#label": "Crvena Stiljena (Montenegro)", "http://w3id.org/geo-lod/hasCertaintyDescription": "findspot mentioned in a scientific paper and found on OpenStreetMap", "http://w3id.org/geo-lod/hasLiteratureReference": "Morley & Woodward, 2011", "http://www.w3.org/2000/01/rdf-schema#comment": "CI findspot related from literature", "http://www.w3.org/2004/02/skos/core#prefLabel": "Crvena Stiljena (Montenegro)", "http://www.w3.org/2004/02/skos/core#scopeNote": "CI findspot related from literature", "http://rdfs.org/ns/void#inDataset.value": "314"}, "geometry": {"type": "Point", "coordinates": [18.4815, 42.779], "crs": "4326"}}, {"type": "Feature", "id": "http://w3id.org/geo-lod/ci/cisite_59", "name": "Kostenki-Borshchevo (Russia) (ci:cisite_59)", "dateprops": [], "properties": {"http://www.w3.org/2000/01/rdf-schema#label": "Kostenki-Borshchevo (Russia)", "http://w3id.org/geo-lod/hasCertaintyDescription": "findspot mentioned in a scientific paper", "http://w3id.org/geo-lod/hasLiteratureReference": "Giaccio et al., 2008", "http://www.w3.org/2000/01/rdf-schema#comment": "CI findspot related from literature", "http://www.w3.org/2004/02/skos/core#prefLabel": "Kostenki-Borshchevo (Russia)", "http://www.w3.org/2004/02/skos/core#scopeNote": "CI findspot related from literature", "http://rdfs.org/ns/void#inDataset.value": "314"}, "geometry": {"type": "Point", "coordinates": [39.0517, 51.3858], "crs": "4326"}}, {"type": "Feature", "id": "http://w3id.org/geo-lod/ci/cisite_19", "name": "Paglicci Cave (ci:cisite_19)", "dateprops": [], "properties": {"http://www.w3.org/2000/01/rdf-schema#label": "Paglicci Cave", "http://w3id.org/geo-lod/hasCertaintyDescription": "findspot mentioned in a scientific paper", "http://w3id.org/geo-lod/hasLiteratureReference": "Giaccio et al., 2008", "http://www.w3.org/2000/01/rdf-schema#comment": "CI findspot related from literature", "http://www.w3.org/2004/02/skos/core#prefLabel": "Paglicci Cave", "http://www.w3.org/2004/02/skos/core#scopeNote": "CI findspot related from literature", "http://rdfs.org/ns/void#inDataset.value": "314"}, "geometry": {"type": "Point", "coordinates": [15.615, 41.6541], "crs": "4326"}}, {"type": "Feature", "id": "http://w3id.org/geo-lod/ci/cisite_62", "name": "Tabula Traiana (Serbia) (ci:cisite_62)", "dateprops": [], "properties": {"http://www.w3.org/2000/01/rdf-schema#label": "Tabula Traiana (Serbia)", "http://w3id.org/geo-lod/hasCertaintyDescription": "findspot mentioned in a scientific paper", "http://w3id.org/geo-lod/hasLiteratureReference": "Lowe et al., 2012", "http://www.w3.org/2000/01/rdf-schema#comment": "CI findspot related from literature", "http://www.w3.org/2004/02/skos/core#prefLabel": "Tabula Traiana (Serbia)", "http://www.w3.org/2004/02/skos/core#scopeNote": "CI findspot related from literature", "http://rdfs.org/ns/void#inDataset.value": "314"}, "geometry": {"type": "Point", "coordinates": [22.3094, 44.6568], "crs": "4326"}}, {"type": "Feature", "id": "http://w3id.org/geo-lod/ci/cisite_45", "name": "Franchthi Cave (Greece) (ci:cisite_45)", "dateprops": [], "properties": {"http://www.w3.org/2000/01/rdf-schema#label": "Franchthi Cave (Greece)", "http://w3id.org/geo-lod/hasCertaintyDescription": "findspot mentioned in a scientific paper and found on OpenStreetMap", "http://w3id.org/geo-lod/hasLiteratureReference": "Fedele et al., 2003", "http://www.w3.org/2000/01/rdf-schema#comment": "CI findspot related from literature", "http://www.w3.org/2004/02/skos/core#prefLabel": "Franchthi Cave (Greece)", "http://www.w3.org/2004/02/skos/core#scopeNote": "CI findspot related from literature", "http://rdfs.org/ns/void#inDataset.value": "314"}, "geometry": {"type": "Point", "coordinates": [23.1311, 37.4226], "crs": "4326"}}, {"type": "Feature", "id": "http://w3id.org/geo-lod/ci/cisite_63", "name": "Titel Pleateau (Serbia) (ci:cisite_63)", "dateprops": [], "properties": {"http://www.w3.org/2000/01/rdf-schema#label": "Titel Pleateau (Serbia)", "http://w3id.org/geo-lod/hasCertaintyDescription": "findspot mentioned in a scientific paper", "http://w3id.org/geo-lod/hasLiteratureReference": "Baykal et al., 2018", "http://www.w3.org/2000/01/rdf-schema#comment": "CI findspot related from literature", "http://www.w3.org/2004/02/skos/core#prefLabel": "Titel Pleateau (Serbia)", "http://www.w3.org/2004/02/skos/core#scopeNote": "CI findspot related from literature", "http://rdfs.org/ns/void#inDataset.value": "314"}, "geometry": {"type": "Point", "coordinates": [20.3026, 45.2034], "crs": "4326"}}, {"type": "Feature", "id": "http://w3id.org/geo-lod/ci/cisite_44", "name": "Toplitsa Cave (Bulgaria) (ci:cisite_44)", "dateprops": [], "properties": {"http://www.w3.org/2000/01/rdf-schema#label": "Toplitsa Cave (Bulgaria)", "http://w3id.org/geo-lod/hasCertaintyDescription": "findspot mentioned in a scientific paper", "http://w3id.org/geo-lod/hasLiteratureReference": "Tsanova et al., 2021", "http://www.w3.org/2000/01/rdf-schema#comment": "CI findspot related from literature", "http://www.w3.org/2004/02/skos/core#prefLabel": "Toplitsa Cave (Bulgaria)", "http://www.w3.org/2004/02/skos/core#scopeNote": "CI findspot related from literature", "http://rdfs.org/ns/void#inDataset.value": "314"}, "geometry": {"type": "Point", "coordinates": [24.0053, 43.1907], "crs": "4326"}}, {"type": "Feature", "id": "http://w3id.org/geo-lod/ci/cisite_50", "name": "Golema Pesht Cave near Zdunje (Macedonia) (ci:cisite_50)", "dateprops": [], "properties": {"http://www.w3.org/2000/01/rdf-schema#label": "Golema Pesht Cave near Zdunje (Macedonia)", "http://w3id.org/geo-lod/hasCertaintyDescription": "findspot mentioned in a scientific paper", "http://w3id.org/geo-lod/hasLiteratureReference": "Lowe et al., 2012", "http://www.w3.org/2000/01/rdf-schema#comment": "CI findspot related from literature", "http://www.w3.org/2004/02/skos/core#prefLabel": "Golema Pesht Cave near Zdunje (Macedonia)", "http://www.w3.org/2004/02/skos/core#scopeNote": "CI findspot related from literature", "http://rdfs.org/ns/void#inDataset.value": "314"}, "geometry": {"type": "Point", "coordinates": [21.1617, 41.8117], "crs": "4326"}}, {"type": "Feature", "id": "http://w3id.org/geo-lod/ci/cisite_65", "name": "Haua-Fteah (Libya) (ci:cisite_65)", "dateprops": [], "properties": {"http://www.w3.org/2000/01/rdf-schema#label": "Haua-Fteah (Libya)", "http://w3id.org/geo-lod/hasCertaintyDescription": "findspot mentioned in a scientific paper", "http://w3id.org/geo-lod/hasLiteratureReference": "Lowe et al., 2012", "http://www.w3.org/2000/01/rdf-schema#comment": "CI findspot related from literature", "http://www.w3.org/2004/02/skos/core#prefLabel": "Haua-Fteah (Libya)", "http://www.w3.org/2004/02/skos/core#scopeNote": "CI findspot related from literature", "http://rdfs.org/ns/void#inDataset.value": "314"}, "geometry": {"type": "Point", "coordinates": [22.0516, 32.9002], "crs": "4326"}}], "numberMatched": 9, "numberReturned": 9, "bbox": [15.615, 32.9002, 39.0517, 51.3858], "crs": "http://www.opengis.net/def/crs/EPSG/0/4326"}